sk_Locality;Address Number;Division Name;Region Name;City;State;Country
bacccbe2ff48d486caa29043d7401626befdc592aec10fd7faa79b10fb32d504;10022249;Domestic;Southern;Shelby;NC;US
802d3fb155f4d17fbec7958cca9e8ba9a961032808b953649a4ed7961898b6df;10025267;International;International;NÃO INFORMADO;NÃO INFORMADO;NÃO INFORMADO
e80b13f4f9859a065595f8f9a2eb51513d708fb852dfbbcdc1b91edf7accbee4;10021936;Domestic;Southern;Louisville;KY;US
219d7277344b4e0da9768132567f207a335af6d90046740a8d1e0251eb646e73;10016780;International;International;NÃO INFORMADO;NÃO INFORMADO;NÃO INFORMADO
86896dceeb0ac4bb86ada474c002946066258cf939c7af3aa29c51efc2760799;10016549;Domestic;Southern;Jacksonville;FL;US
0e57c5957d600560a81cfd1952a66ad813383cae76da9a550996c54501e33122;10025291;Domestic;Central;Dover;OH;US
8e1ff1f3a2587b56f1b1ebedc955a32ee96aec23c1bc9c5aac7a93d9f471ef07;10025571;Domestic;Central;Des Moines;IA;US
e3d8f296d2d24b1018fb6afcc701cbd50220f489710c351b4dba2de49755f028;10027356;Domestic;Central;Grand Rapids;MN;US
44bdcc26fb5437aef9303cbf7ee3cb23cfe87fa9f3ec0ed84bbc8b1539f03b89;10000455;Domestic;Western;Huntington Beach;CA;US
1f5392c4e4d2ad6067599dbdc19d9978b4b6aabcf3251ba882c6162839916efc;10009653;International;Canada;Mississauga;ON;CA
6d37ab7eb880e7830d5a1081944a31f10044b7ce84833cfe161261c68a3b26d4;10021485;Domestic;Central;Hamel;MN;US
2292846f66ffab7c633a5ff306d0fc359d38f0a773f8fbecc2fa61b99a651221;10007309;International;International;NÃO INFORMADO;NÃO INFORMADO;UK
38f5e42962c83507581eb9181e44017b340be420f65212e6d0eb7f1241c88107;10021411;International;International;NÃO INFORMADO;NÃO INFORMADO;NÃO INFORMADO
155ac2b77f9c57148ae14bf48218d554095c7d01f002e1d99ec0296251f5e030;10010832;International;International;NÃO INFORMADO;NÃO INFORMADO;NÃO INFORMADO
3ce090d73cea3ce3c55e1e6db9dd0107ab8b643eff52e1d13b629f7504bf1318;10027370;International;International;Madrid;NÃO INFORMADO;UK
179e18b6c59f95eb3eaad447e4fb25040b87f4154dc2611f8745f7f0513aeb26;10025039;Domestic;Central;Mentor;OH;US
0884145c61dd29aa3bd17bdf3cff4731ff4cd32cd426d0755bc1dc735a163dd5;10021804;International;International;NÃO INFORMADO;NÃO INFORMADO;NÃO INFORMADO
0853007d1fa2aae753ef3c84867284fc976ef9437656a57e817bebbcae1ec52c;10019664;Domestic;Central;MOLINE;IL;US
34fa2f7c3029ef29f324486fa4c3b3303f7df79f9aad7042de6e1e0fd1a0ad88;10025549;Domestic;Northeast;Shady Grove;PA;US
0f4ab61f694c42ac4ed5e0a136fd5f1d92adeeee3e9acefc39b5552d1c85f21c;10000478;Domestic;Southern;Little Rock;AR;US
708d4032cda0e9323e9a3d665b062b21c9e8b6c8970fb00452bcfc583c8f7a33;10012234;Domestic;Western;Hayward;CA;US
c7e2b3b2c357e161db818bc62bc175634bdc3fcd4c45d33a74cc72665961b9e8;10017054;Domestic;Central;Newport;MI;US
04feb7406d648aa13c3305ba98c9d40bf4e56bd695e8d84faa901234b96401b3;10025508;International;Canada;Moncton;NB;CA
5f010e69b76f32820908589087bfc1ab2cc096efe6600f4e7f17b6033591936c;10026294;International;International;NÃO INFORMADO;NÃO INFORMADO;NÃO INFORMADO
795bd11103613ba1e48eb0d914ae737cdfb4644b1b2a194689acb05b1c49c0f5;10000488;International;International;NÃO INFORMADO;NÃO INFORMADO;NÃO INFORMADO
bf4e60cd8f942594314b0b78c79b6bca7ff7e0d72798169a7bc3e6404598cd8e;10018665;Domestic;Northeast;Wester Chester;PA;US
b0e73642d6ffe682e02714261666615532eeb87dcb61d7ff22d972beaa75ae37;10002149;International;International;NÃO INFORMADO;NÃO INFORMADO;NÃO INFORMADO
e036f3e35b3e7c2ad0054efa9736f975ca53931a69d0a87ed08f37d07b3140bc;10023509;Domestic;Southern;Tampa;FL;US
dd95ccd41606c85bb9b25743cefb79b4bd15b72df7e0218e938d485b2cfe8a82;10012885;International;International;NÃO INFORMADO;NÃO INFORMADO;NÃO INFORMADO
fe35efd41bae5a40a6d3709c87b8c818eb7048112bfccab7773479008d41cbce;10025023;International;Canada;Saskatoon;SK;CA
2214f3f650815578030b04cbff3111e271d26834cb242aadb587361b8e019e1e;10005099;International;International;NÃO INFORMADO;NÃO INFORMADO;NÃO INFORMADO
439d0669e9d5ff84b4f9f3d19083531898ce7a3e8ee5801218057a3b811a4c66;10019880;Domestic;Northeast;Somerset;NJ;US
d5de1c4e7125e6d58596e80b6f7c4ed772db6d8d20ddda8c38a38f4ac2e278e7;10025024;International;International;NÃO INFORMADO;NÃO INFORMADO;NÃO INFORMADO
2ef33c9a85b898d5061d54eec64926d7df2fc4511047fa30697ef6a220122882;10021175;Domestic;Southern;Johnson City;TN;US
03f421c1b293a08c0375305687b6ace5f8abffe690e98639c96ccf165e06ad07;10010914;Domestic;Central;Overland Park;KS;US
ab6708653a858f335d60e3540584b4fc3ba38c49ee2b8245d49700e1cf19e07f;10024499;Domestic;Southern;Houston;TX;US
c855b622df13ace0752006b4c87046fd2138a6cb3a412480cc91c4593118f5ce;10021911;Domestic;Southern;Te Rapa Hamilton;MS;US
75824eae1d0b26f1bc7d62768350ad2f93b17dab1ff6aa0cb33e8af9ac991873;10012235;International;Canada;Winnipeg;MB;CA
882bc7908fa1cb8bf8b825508ae009ac17c7d9733986a27c4c80a8bcbfaf7642;10007566;Domestic;Central;St Joseph;MO;US
4b03016e753a5b44b53998f11349b496ea8ae1d0e370bd7ae1452626c34bc74e;10024930;International;International;NÃO INFORMADO;NÃO INFORMADO;NÃO INFORMADO
9c981fac06241a9ba50f5aaa180daaafef9cb7925f8ab8d4e216154beb9aef06;10013188;Domestic;Southern;Charlotte;NC;US
4363392f121c37afdc36ef262a0d63669b900d874eb3ee3dea3001f2da580650;10015275;Domestic;Central;Marshfield;WI;US
67659d1ffc6432b8ed0ccbfda995d08cb23fbb29e09456312de64fd512114f72;10013574;International;International;NÃO INFORMADO;NÃO INFORMADO;NÃO INFORMADO
76cc5df6d72b9a7e56f5ee70cb8cf4c6c3acbcaf045d1137f9f5933485a1a5ec;10017852;International;International;NÃO INFORMADO;NÃO INFORMADO;NÃO INFORMADO
c60da3d720220e284d24441ff6294eb280098f0d7367d73c0a162f2cca970efb;10017638;Domestic;Northeast;Roanoke;VA;US
21b54a23ad8310d4092f993d2155828a8f83a8c45bdfb7512ae42b5055639e34;10006917;International;International;NÃO INFORMADO;NÃO INFORMADO;NÃO INFORMADO
e9af6a4df25693c9353b9ca3318f7216c79c819468a0186402a3d135ec7d73ce;10000501;International;International;NÃO INFORMADO;NÃO INFORMADO;NÃO INFORMADO
561fff2ecf6571b98931c245ba57c176464da5e37f3249a16550c5d12c5721f7;10020662;International;International;Jakarta Utara;NÃO INFORMADO;AU
4d2b5a708b425c6a0865b1195c9614ea86cf69aa549687dacb22ad68861dce1f;10007355;Domestic;Southern;Amarillo;TX;US
ea98c916d6d1a5d77b60a2db727e17314ee06cca15a0978669e245a9bbfd7dce;10026006;International;Canada;Calgary;AB;CA
8a5223fb924f0e18f29c00a03e1b28b9b90c57e8cdccb8efc566bc936294d946;10018868;International;International;NÃO INFORMADO;NÃO INFORMADO;AU
07e83781d7e4a59bb47ef087469d36a79f519f07c1e008046265ff4101104dad;10000497;International;International;NÃO INFORMADO;NÃO INFORMADO;NÃO INFORMADO
100541d9d83e9d720f24779696b47eb1c9fac14ce47681b959333273d94fa958;10020715;International;International;Linares (Jaen);NÃO INFORMADO;UK
027b9f1d8d6cd695b508e106a0d0c9ca22176debbd4c82288da6f9474842f21b;10026055;Domestic;Central;Eau Claire;WI;US
e4c7b312340f99eec344124b68b77c57468a8d9eb48c30198f69a862f2f26af0;10011546;International;International;NÃO INFORMADO;NÃO INFORMADO;NÃO INFORMADO
1f385f2cbc7d96eeef6660159d61fd974b6a6c051ea09ae54afbe01d174f2a2b;10013011;International;International;112 Reyjavik;NÃO INFORMADO;AU
e7e5624619642d34c05c8069574fe1f40cb5748d5898be8f0c11c761a0b3908d;10020684;Domestic;Southern;Montgomery;AL;US
bdfe659ce6f7ffb8c188175bb61b384a662663454de4451513d6ff64960caa59;10007117;International;International;Taipei;NÃO INFORMADO;AU
024de446406012d25e0314ff16eb35cb659f24d932e225fc1114942750931eb6;10016858;Domestic;Western;Beaverton;OR;US
4a114d8b94f7081334afa42cd49ad5972c63b1f28b2159d8c6ab2f277acc87a9;10007120;Domestic;Western;Rexburg;ID;US
59af521ee9935e7732d3ff221c9e6234f5967967d830aa8778963190877964f2;10023760;Domestic;Northeast;North Hampton;NH;US
ced475856d39d1535a6039fc5e1a3ff327938cb08e1d7ae2ff15d26f2a626267;10023241;Domestic;Southern;North Little Rock;AR;US
8b857792bc96a92f953a9dec3711212b03b2f510c7dfbceceb950a28b00c7810;10025241;International;International;Hamamatsu City;NÃO INFORMADO;AU
682407cf620cf58820a5df516b46b9d1317a45cae7c3b36b722bd70150aa7c9d;10022423;Domestic;Central;Cincinnati;OH;US
47694d7a8b0991b3cd007aec772f6aa42bbad5a6a6a3873dc21f388e5e4e9b4d;10024477;International;International;Santa Cruz;NÃO INFORMADO;UK
21e614f6647d56e6461d1d07b9d6e77d8c57f70116085dbaaaa68e50e9ba6832;10000475;Domestic;Southern;Charlotte;NC;US
04e978e406ba96765bfee92a1c437d17347ecb6775956fb0ea74cac780d99190;10016303;Domestic;Northeast;Buffalo;NY;US
aa18ca6528d178a606c46c319041cb791a17ea506b6bf3b28aea53384444c94a;10011979;International;International;4100 Porto;NÃO INFORMADO;UK
1ef14fab3f964c5b010fc81abd2c3abe97e8a13258ef80d58075a3da7accf9ff;10014802;International;International;NÃO INFORMADO;NÃO INFORMADO;NÃO INFORMADO
56969c489a48f01d7b7011bc9bac51d185608689be7e0ebb6405e97cdc7effb4;10000496;International;International;NÃO INFORMADO;NÃO INFORMADO;NÃO INFORMADO
1ade42521ec151ebc85e39ffacbf612f3be2ffb862d816a7e10975c15d5c03da;10024915;International;International;NÃO INFORMADO;NÃO INFORMADO;NÃO INFORMADO
1edd0a9366a49bfec976741a7e47fb43214c0f6d86a04e1b954cdd3dd0d94bfe;10014739;Domestic;Southern;Tulsa;OK;US
ffaae8bdafbb219715377191f8ff11d93ab401e7261ea96906acc60668f0a7fe;10021222;Domestic;Western;Buffdale;UT;US
75b8c87da6acc3be1a6b688cc355baa04d3a9d5b5d4edcf10ab67010f5bb9abf;10011821;International;International;NÃO INFORMADO;NÃO INFORMADO;NÃO INFORMADO
c2c1a14b103259da7d2eb6d9ef7262639f162c5abe0b16d055a1b53005a99fb8;10013426;International;International;NÃO INFORMADO;NÃO INFORMADO;NÃO INFORMADO
75d4c9f6fd30512824b748890d382b7998875581e82c6253d73c62e722b5a8cf;10009697;Domestic;Southern;Orlando;FL;US
d7e35e4ba371ec9ec9a8f4cc86a32288157a8ce981e47d8913e50f870d8107d4;10008893;Domestic;Western;Yakama;WA;US
7ff0e7523c4aec2e59298fb4a6303d41da695c4d396bc9c0127e0c4b4795b064;10009633;International;International;NÃO INFORMADO;NÃO INFORMADO;UK
7617f70a016c832c310a87b71ec73c34ea38aeff666bd5e25a2e68c559e32fff;10009647;Domestic;Western;Sacramento;CA;US
2ace894337adb22bf3204534cc1db479d3c56f87445be1c87e63916bdb7a456d;10009606;International;International;Kilsyth;NÃO INFORMADO;UK
6c52676b22510e3d67a10f09a998606fa0ef88e6d9bf990d5c0dd0d6d856e93e;10000453;International;International;NÃO INFORMADO;NÃO INFORMADO;UK
d2f078fb50a0a2819c64fec5acae6b60185e6bee8724cd5c8604b5d89409942d;10024550;Domestic;Central;Appleton;WI;US
61f7a57f22def02b3f049703767854ec99371e109d6d6c069fc82ae1728e4cf8;10012369;International;International;NÃO INFORMADO;NÃO INFORMADO;NÃO INFORMADO
4806d5d9cf102389c990118d61853e112a781b4e95bc816c6ff8f6da92259f29;10022434;Domestic;Western;Placentia;CA;US
317ec223469760a8ea20782de25ff74e00a674b8df71d3646cdac2f4b1d594ee;10009652;International;Canada;Valcourt;QU;CA
4e4c75413d3cbd1090fc6cf75f5fb6fe388eb40a051d6f6e96bfb3aaebb7716e;10010855;International;International;NÃO INFORMADO;NÃO INFORMADO;NÃO INFORMADO
409e8ed7e879b0f7f665ec380ec8ba2c93508ada184064053aba2a1fa96c5bf9;10019812;International;International;NÃO INFORMADO;NÃO INFORMADO;NÃO INFORMADO
9dc5cc25040acd1063e42c8dd028bca1fdd3307e4581714f83c288451d20810d;10025300;Domestic;Northeast;West Sayville;NY;US
b8ffaae1e5bafee8a3831f4e55df9310bf5f98795bafa673a5806f752cd5ba77;10020266;International;International;NÃO INFORMADO;NÃO INFORMADO;NÃO INFORMADO
80b2dfae2a9a5b053db57ccda74c396ff525e495176d805f7b4d60f89777aec8;10024034;International;Canada;Edmonton;AB;CA
2ed932c5fda9c54aa6a7e2b39c7f5a1fe4838f04d09babc1fe2b872a086ba6b3;10000458;Domestic;Central;Saginaw;MI;US
4542f258f37618dd9daa303ff1d3c37032ee30538895a8a36cb0e1cab5ab4039;10013765;Domestic;Central;St Louis;MO;US
b692d4d51e00416dd93ffb8e3bb435528d046e9772d5f7b987857195bc6504c5;10009156;Domestic;Central;Attica;IN;US
30fc612855339deaad799d196c1c8a260ee3600f46ec8f3ef0fa151651aeae2b;10025063;International;International;NÃO INFORMADO;NÃO INFORMADO;UK
ba72259f66feffdb8afffc31441421dc240766594c56ead89fc4677f02bbfcdd;10025515;Domestic;Southern;Jackson;MS;US
451fdba5254cfacd6b55617c41c99ed881555dc464ad22aa5787b6226c71c412;10009669;International;International;NÃO INFORMADO;NÃO INFORMADO;UK
0ce2dac838e30ba53e75014c56ce72d67fddea34d38b4f618e66fd01aba254fc;10020281;International;International;NÃO INFORMADO;NÃO INFORMADO;NÃO INFORMADO
a908d3070ff9068174b08cf0bda46ac28732f8c206fa97b85e2913ab4d9ad407;10020181;International;International;D 95326 Kulmbach;NÃO INFORMADO;UK
b85e175b8e9afa5d8699e488c692bfeca333a7d4fa89679657b1da25178ead3b;10009863;International;International;Beijing 100088;NÃO INFORMADO;UK
3ee0411853a312c00ebf3a753726970a424e74208f7e3209ef884d96f33963ca;10020446;Domestic;Central;Pontiac;MI;US
e7741a53d712c348d52b6656b36e77d1e587714523889b4034c2dac7e0414148;10017314;Domestic;Southern;El Paso;TX;US
6afca665e8c65f9dfd839a015bf095f0f1d3ab0e3d47293f209b65a0120daed5;10025040;Domestic;Southern;San Antonio;TX;US
6b9fdf06b6180d7b9b7857a1d70d46dc35f9c926c2df65f145fbcb05c6e3f116;10003749;International;International;NÃO INFORMADO;NÃO INFORMADO;NÃO INFORMADO
1690e80d100a95c5eb66526ddbf8b56a63f5b54dae424a73bfe02c656222a57c;10015956;International;International;NÃO INFORMADO;NÃO INFORMADO;NÃO INFORMADO
c2ac1490e5f9d551b2dcc197be48ced40eb985778e5e58767909af3092d9fa60;10017290;International;International;Bogota;NÃO INFORMADO;UK
3625bc63edb746e0cb217ca68d8a8e22f8b23d34b61c26bd0d5ea3917b535589;10026348;Domestic;Southern;Mebane;NC;US
1e6c674fe9c079601d3fd5e169d317c80c4c0053a4ca30c3edc0c8b3cc31f5f6;10023244;Domestic;Southern;Cleveland;MS;US
deb31a8bf5a8b9ed22a7993fbb6207b96eff74ab1076ad17e4d820788f3aac50;10023524;Domestic;Southern;Clemson;SC;US
ef7ae34c4ef956e60d5171d8f0b8ffe065fc2920100ea08fec47df4b2885c4a6;10019913;International;Canada;Calgary;AB;CA
176507ee2e436fe9571b8cc2b392bd61b8e4198d7790b0ecd9cb1a2be6e46b71;10011198;Domestic;Northeast;Framingham;MA;US
34ae1905661923eb62b340127c7644921cceee2ef8d95d23a6fb7e1e221eaf5b;10006846;Domestic;Western;Modesto;CA;US
62078123ae03dfa3e15a41a8047407c02836a7ed3c046a838a40e775e9eeb533;10022755;International;International;Johannesburg;NÃO INFORMADO;AU
1f26cad971eb79a8cc6f47e1169f74c47f4231774a7f9d692d951dae9c326152;10025242;International;International;Seoul;NÃO INFORMADO;AU
3b57eaf32e89c18f7d0cba16212d4c3242919d45dfbc64e9854059033d0d6af6;10021331;International;International;NÃO INFORMADO;NÃO INFORMADO;NÃO INFORMADO
463329411eb8506c65623f62ff29314b038dba907c7cfad1d52f2b110f4c5993;10018871;Domestic;Central;Livonia;MI;US
d56c16b58df7c21f7c33158a6d94626c2377aadaba565968c1f2c159cd2734b8;10021297;International;International;NÃO INFORMADO;NÃO INFORMADO;NÃO INFORMADO
a29ab6750640e0ee049ff2160679b584c4d69953dc0875b2a80c1a014c1a30e8;10016564;Domestic;Central;Traverse City;MI;US
4d6ae54d9cbbd64098f40fb84aa77627bfa50d15e967344876bdbd78ecd580df;10002142;International;International;NÃO INFORMADO;NÃO INFORMADO;NÃO INFORMADO
8a43134a267996f227751f80f7a6b1d3881de6a6d013e1b25efda6893c5eef4b;10010886;Domestic;Western;Libby;MT;US
997183d410f2590e94443bae1470d276e612ae25fa8226a3bd8f6c1e785d87ef;10020492;International;International;NÃO INFORMADO;NÃO INFORMADO;NÃO INFORMADO
6feba2be17b2d4538eff481db04ac411a1ab5c3dd40650a26d43de44f83377f7;10019909;Domestic;Central;Shawano;WI;US
e026ad156ce0c41948bea28c6334e73792c8998e1ff893c607af5bd7be16820d;10025248;Domestic;Western;Kent;WA;US
ac16b2d19759da88af0c4ca9a709fe2cacd574f039dea1bfc87816fed0dbcedc;10021470;Domestic;Northeast;Wrightsville;PA;US
48ac155ee072c9b8698c83c847f10a9795276f79cb3caae4ef16a714707efdba;10020247;International;International;NÃO INFORMADO;NÃO INFORMADO;NÃO INFORMADO
e7c4287929ab3547b2a9051328b10164abc5c36d884b6031bc63179dc0b255f1;10011089;International;International;NÃO INFORMADO;NÃO INFORMADO;NÃO INFORMADO
adaad810745db0d1dfaef1bddb89f621740dd19394b0f02a671b6fb0cf0f4617;10025049;Domestic;Western;Milwaukie;OR;US
95ad6a671d6a6ed0595dc441c4752be4ea727fb0fb9bfb54eaeaf8d72786b873;10017576;Domestic;Southern;New Orleans;LA;US
f4df829cd9dbaa6119d1b7d82709feaa1304ca421e305bcb779af3da1d08432b;10018603;International;International;Dubai;NÃO INFORMADO;UK
a52ca8fdc2a9e4eb3f3bb016b859862a0285518a94d7a9fc44ddcccaa938bb4c;10023783;Domestic;Southern;Pine Bluff;AR;US
33ccd01b6f3580564d205f8713d5b5715388960090f0cfaa5d78d86b66093912;10011997;Domestic;Northeast;Roanoke;VA;US
f42b891e15161b09316f9baad31e34b39075d2db6bb8ddfa3b31884828d09291;10007134;International;International;NÃO INFORMADO;NÃO INFORMADO;NÃO INFORMADO
a0e336c651173e5b5beafd05230c1329e3b0370b473a99b649643dfffff3c717;10005376;International;International;NÃO INFORMADO;NÃO INFORMADO;NÃO INFORMADO
39e2c1c4894418771999a4211ebf3787be564b9327cf499d852fd48d4dcc2b9c;10004602;International;International;NÃO INFORMADO;NÃO INFORMADO;NÃO INFORMADO
f0efcc0101aa45e1544afc89adf221758f81e9d3c9d305bef0290eede1d7daa4;10020663;Domestic;Western;Sparks;NV;US
9feaed5b498fba1012f58ea07796d2852450254fdf4ef65f81c19f6d60dd08f1;10004516;International;International;Lighthorne Warwick;NÃO INFORMADO;UK
bd769375ebd25bc9e852986010b675c52b642c737704a75bcac7094edec12fda;10021415;Domestic;Central;Indianopolis;IN;US
04467071521bf4c9d4157fca7734e4c963b96a17caf757774e55a6434b879470;10027575;Domestic;Southern;Dallas;TX;US
4fd5c39922071e1889f632c2c68da388796c1175a52abc252f5581ca114a4052;10000461;International;Canada;Boucherville;QU;CA
ca9fc87bd523ee51499026ac9030b80fbaca2a70a5f1eecbebc2ef7a3382317b;10021422;Domestic;Western;Brea;CA;US
618c6ff24b101ee4a21e08171d28c01764b576ff0009bc4faf44032c7423e3e3;10000480;Domestic;Western;Phoenix;AZ;US
9b3ab5776546c84f5525ded915d9404ac5929df30b55099b1c262a6d3043a8d6;10019420;International;International;Ruwi;NÃO INFORMADO;IR
b68d9a23962f34a9df475d7d39481a9a16cca704392cb964928f57398b8ca554;10006805;Domestic;Southern;Miami;FL;US
dc63fd3a073031caa70c6fd2db0cd40c8471187600a347c53e6b6a7770bd3045;10025302;Domestic;Southern;Tulsa;OK;US
d144517c771d1f11f8a8f8dd35f5eb2152e8dde3ea7347ef863d9b540293afdf;10013572;International;International;NÃO INFORMADO;NÃO INFORMADO;NÃO INFORMADO
0413b72cf392ad630b7af3b2fbe6046f4be9b177353ef2a03babbd0842f8c07c;10026268;International;Canada;Surrey;BC;CA
076a1cb08d7f7ca874a42d08dcfc52dd1a3244288f823e381319c993c5322855;10022962;International;International;NÃO INFORMADO;NÃO INFORMADO;NÃO INFORMADO
1dac1455414649781163c3aed0ec098ddbe79c4d09737f981cab709f714d9ab0;10002489;Domestic;Southern;Villa Rica;GA;US
a9d55df0fc9afe59e171cc2b97f5c4852f20ff6654fee98094a48856c0a58f46;10011600;International;International;NÃO INFORMADO;NÃO INFORMADO;NÃO INFORMADO
6f6c79762fc7f2d043edc262fe2b8013c6d23437052a0b3ee7c352b5626fade0;10020915;Domestic;Central;McHenry;IL;US
02eac818a10221275c8bf250c11a5201177a6af8ee707bfa755ffd7fd09fb45a;10023023;Domestic;Central;Thief River Falls;MN;US
26fe55f61c675d969630790ee30ddeec6edb81a39d24ecc58ac4ed6868ad008a;10024704;International;International;NÃO INFORMADO;NÃO INFORMADO;NÃO INFORMADO
540b870097bef4834dedb6039d605a91c99a6ccd82fc04b61a9f5d808638fd54;10002137;International;International;NÃO INFORMADO;NÃO INFORMADO;NÃO INFORMADO
4832d24cd2250fbb75f8d05a9234c41ce45334934a4a0f3d088a3d1418c6452b;10019678;Domestic;Western;Sacramento;CA;US
e3d1a3c8e492fb84b48492ffc11bfeca79208f5ab3a82b5550182344f314429c;10023780;International;International;Asuncion;NÃO INFORMADO;UK
9d237aaec09d6b168f028bb59d0f6c9aa6a87a3b45f0a695845ed303e6baeb8b;10025288;International;International;Furstentum;NÃO INFORMADO;AU
c357db6d53ec5ead6541794702e39e39fe0e8e59e2e55c1ccaae3c67bbd333ed;10026355;Domestic;Western;Casper;WY;US
7f7b3e59d6a34255f3be1214664a6c42ae924bb8dbc0b881351cc6b17dee07d3;10023275;Domestic;Western;Portland;OR;US
90bb55b013d31406c12d73802629b0a8585069289ca06fa9f1d3cee87231b9d9;10009679;Domestic;Southern;Meridian;MS;US
8c9623d4048dff461c2d5b15cac7f90326fe5dde5e675c868661dd3845ec2157;10021270;International;International;NÃO INFORMADO;NÃO INFORMADO;NÃO INFORMADO
dc7c0b16accc408f141b2542a2085a06b7fd61b379decf29208e843578d6debf;10005810;International;International;NÃO INFORMADO;NÃO INFORMADO;NÃO INFORMADO
a27970dac695413a7886ffbd49ffabe0dcc1176bc82513da0c3bf1bf70205f3f;10026868;International;International;Valencia;NÃO INFORMADO;UK
2f5f2adfdbd0ca8b338c32f243aecb7fbe7890bff95282c6dddfcce017353be0;10025552;Domestic;Central;Southfield;MI;US
b5e3db2c6e6b874a15b4949d9f8b141ceef15efa57915327f8ae83f94a649986;10010912;Domestic;Southern;Fort Smith;AR;US
2f65f841f847608ed3e1d86c5a87b599ad5037fa7889758ea691e7a28120c4e0;10016542;Domestic;Southern;Greenville;SC;US
ceeb9c6caa08e9216be63df1cbd229b543963d230cf32891ea643720915ffd2a;10008638;Domestic;Northeast;Milesburg;PA;US
e2f79e51415013427dbddb1d40207d793939e8b88be691c7991d20d0f167d407;10025061;Domestic;Central;Canton;OH;US
02ba980fd2695ffaf8bd5090fd44560d1181f27ba8619f9d9bd0ad59d5fb997d;10019469;International;International;NÃO INFORMADO;NÃO INFORMADO;NÃO INFORMADO
f250bcd9cbe1f035f664753d1b2053cd763e9646e8bffb3a472ab6c5605f24ce;10019665;Domestic;Central;Hammond;IN;US
ac6caaa9ec3a9b81f6cc0b8281742a7752e7f4e7ab8279be27bc6f39f1d50d6b;10009657;Domestic;Northeast;Lewiston;ME;US
c8761eea0a8d0afdccbe8f2f8bc8e1c66ed057bd8a47120e275b3916f955588b;10002136;International;International;NÃO INFORMADO;NÃO INFORMADO;NÃO INFORMADO
190c4cf2e6cdcc3cc2718ad4add41e4d9e9b595970e553f34eb031235b4bf8b0;10019942;Domestic;Central;New Castle;IN;US
2024de5f666c7ac983195aab467e564cee9bea7911dc1ca99abbe167fbe8e0f6;10009662;Domestic;Northeast;West Point;PA;US
c108d23b1a79e44516f079026fd24af8d7408f92f7ff459ee5c2d306f4803001;10018518;International;International;NÃO INFORMADO;NÃO INFORMADO;NÃO INFORMADO
4525f95b9ecfe0d14bb76424b2ea48687da4ce5238c79ba6b207a4cf1f479bfb;10022167;International;International;Georgetown;NÃO INFORMADO;AU
0d333a6fcf49425ee41bd24f921fb5c99652d1a36c18d2d6f727e63187520f3c;10020413;Domestic;Southern;Okarche;OK;US
8f2f2756617af04aa0c2fd15ce576c451aca64311f47b84c9032be22db17688d;10000457;International;International;NÃO INFORMADO;NÃO INFORMADO;NÃO INFORMADO
472497b1251fe870f48218c4a1941ee12ccc092b0e2daf37f25ccbfa4306ee7d;10013079;International;International;NÃO INFORMADO;NÃO INFORMADO;NÃO INFORMADO
25cae47838e6fb62a6d38c517262ef52c038e76ac18769af5899c6beffa8ab00;10006919;International;International;NÃO INFORMADO;NÃO INFORMADO;NÃO INFORMADO
067c51d04fda10cebbe3c9b857aa0f3f0e8fc498f63fa907878c4c0055a56f60;10025033;Domestic;Western;Billings;MT;US
96c0f3a9d1acf7b1efe77d45e415dfd4b90d957f25f24d3457dfae2457acb370;10013252;Domestic;Southern;Irving;TX;US
8c563a6d8e206ab041c9055464824398fea3b9b1fc926ea1fc4ab2672bbe1dc5;10025814;Domestic;Southern;Houston;TX;US
2785d8a79a1219e8e399389474e0402ec9a7edb3bc2b5397079300764fcf8ab3;10002114;International;International;NÃO INFORMADO;NÃO INFORMADO;NÃO INFORMADO
9db49e1c14d04fcfb41506eb6298b14b8b6c844d9fe53434fd03e6e16ef0a541;10026522;Domestic;Central;Fairmount;IN;US
ab3a1cae949b76246aa0c35a093632f211224a88d8e94de5f138b7adb94aad1f;10013232;Domestic;Central;Milwaukie;WI;US
46473eda01dec3c0e512386be8322d0c7f28e52c5524a64126e19da66fabdbb2;10027348;Domestic;Southern;Tampa;FL;US
d3f923a3029476468411c9b088e4c8b3d0c79868b66446846e838a2f1768c32f;10014471;International;Canada;Calgary;AB;CA
65934b7542f69d6d3f43eaeeeee0062ac9c7032175b20c17e094019011c2926d;10022764;Domestic;Southern;Ocala;FL;US
53f8962c0aa893a2299aaad01340b0860ce15e0a80f76dc35bf53e6c43c79fbe;10023715;Domestic;Central;Plainfield;IN;US
5a470f1c63af5f37007b37ef5d05968ddf7432722d6b9db575f32556a60a1c78;10015267;International;International;Sollinge Molle;NÃO INFORMADO;UK
c4e8700c8e1ae4116830f0f47b1cf3f621eaccc73baa64dae399fbde3f367651;10025249;Domestic;Southern;Memphis;TN;US
dab9ced17e03136b6a09651aa677e689d2d8cf38cc48be20aa0f043a901ef45f;10023785;Domestic;Central;Columbus;OH;US
2b43b669b8ca10b0b7d7f1772f2bcb752914e09131d7056a696527de70e616f9;10009907;Domestic;Southern;Elizabethtown;KY;US
7db06d75509d75b5bcf19722e545e4e389af28da6a06c95dc5b9a021cc09f124;10010897;Domestic;Southern;Whitehouse;TN;US
f14ed1f71c995563fc346ac13580263c11d1fcffe4dd4ac1badf45456ee9a697;10021472;International;Canada;Surrey;BC;CA
f6983205d056d2b3de09539df49e35dbf75d10c6cd72656be185d445ee83e3ec;10000462;Domestic;Central;Hazelwood;MO;US
09e5a7b4faa161e2a900315bf407b341266b954fc2a6afad1e8eaf7aaaa0479d;10013080;International;International;NÃO INFORMADO;NÃO INFORMADO;NÃO INFORMADO
05750140082c20d5072f574ebd5d79d3e5d91334a00b21aa5636fbe50b5d6649;10012600;International;International;NÃO INFORMADO;NÃO INFORMADO;NÃO INFORMADO
44ab43e2d11cb7328cfd52edd5ee3b71ebed399d426be91adc94fa6ecbc8a123;10009650;International;International;La Paz;NÃO INFORMADO;UK
c938d6d2ab191c891d140c17cbcf97a2f19bf5a21c0617da03b8660ca9bcc4e6;10009672;Domestic;Western;Phoenix;AZ;US
0198f277b0b27ae6dc84ae703b45f728ee3af21fbfd5ff87b9bb62a68f4033d6;10012927;International;International;NÃO INFORMADO;NÃO INFORMADO;NÃO INFORMADO
718a4c8fd224b08bf13766794ef70450ea7913878f69616b9670a511ef33c0a4;10024924;International;International;NÃO INFORMADO;NÃO INFORMADO;NÃO INFORMADO
03155aa693ee39ef01127dc778151d4dec4e1ab6aabe7c5339789e14d9b2c2e5;10007253;International;International;NÃO INFORMADO;NÃO INFORMADO;NÃO INFORMADO
48931d95e5ceaa4717eb5cf3539e0a6bfe8062bf375624e2d0fd951396a4a76e;10007121;Domestic;Central;St Louis Park;MN;US
3e36b0442f0f62f7d2e91a522e03b465dc5f88c95e63b50d68e0e0dfababc266;10025247;Domestic;Northeast;Pittsburgh;PA;US
59670b76a1228f62515d382ee694428827767613480517d2af68924b6d3db97f;10026336;Domestic;Southern;Columbia;SC;US
03bca83eb016e67638cab65a8b0349d20512548a5f7d4bc85ea1f3110de0b923;10012328;International;International;NÃO INFORMADO;NÃO INFORMADO;NÃO INFORMADO
d495e958744ba8473191753922e5a295795966191dddf8700cb13fd20e5a1435;10015030;Domestic;Western;Anchorage;AK;US
98f454119c87667689631cfaa93414aff0f3b87005944995a704fbeedcc1012e;10025237;International;Canada;Oakville;ON;CA
ba688c1fb39798d1e20088106fafafd847f1d0e39c3ab027fec6beb6d368451b;10021986;Domestic;Central;Livonia;MI;US
cdc94fd6d2b58abfab6bc412514e248b390fa5778864dd7341d5dbd8b7f9a31e;10014238;International;International;2215 TC Voorhout;NÃO INFORMADO;IR
4ca73fe8fe355619009d147f604216d9d4a74b59f88e48a860f0af41d591f88e;10023221;Domestic;Central;Overland Park;KS;US
cf07d73b83c6771db4542bc051bb7b2eec1ea2f71fff495808e1e60708a28f2c;10024262;Domestic;Western;Oakland;CA;US
56fa46a635ac38be301a00dfcf7748f49ac6548a9c7f7df1a0529a86fe81ea14;10009642;Domestic;Central;Joliet;IL;US
c357b7c5ecc9f8286c75486c7835460d8c890df025ae31b8ab026d817b30f4b8;10016784;Domestic;Central;Pocahontas;IA;US
0a1c00c3d24d1754517157f8a41bb5c7d23d392a8f24e3ec433b3a6a1edc25bf;10011345;International;International;NÃO INFORMADO;NÃO INFORMADO;NÃO INFORMADO
af173c70254c518aa26cb717c3e5a8f2391e39bc4fbfa646b135e760e51fb5fc;10025243;Domestic;Southern;Longview;TX;US
ee23db1ca8e5c9048b74f1c24dfefc4afef2498fe5ed88fec647643770437d6a;10018352;International;International;NÃO INFORMADO;NÃO INFORMADO;NÃO INFORMADO
1d09fbf85094a331c63e00ff4486b17d2a53edb8f77c72e4e0b4a129dfd8af32;10013670;International;International;NÃO INFORMADO;NÃO INFORMADO;NÃO INFORMADO
426292129161987eb3f653c450a273509ebec17e4d6b09e0bff8b24c82804c07;10020393;Domestic;Western;Fort Collins;CO;US
be6690de2352438978ba108b5d96a25a27d0a1f492730b8ba306eb7d8b3171f8;10008602;Domestic;Northeast;Wells;ME;US
b1a0590a1a4cc04acba2a1301f31b12ea4d19c1543c4984bbb977e03f4fc96df;10026560;Domestic;Central;Dearborn;MI;US
8b9ad8b5a7f546103a69cd2fcbd1e8bf8327d846a7bf5c3b5d142a72e8a76d24;10002969;Domestic;Northeast;Manassas;VA;US
6d0442edb9b7e948ad9dff963a4b4a9b9ed230ecea5d8bcf7f46489158b53f6e;10025558;Domestic;Southern;Little Rock;AR;US
92196e8aee77b1f0f8548ede63cfa178614f419ef15c343c7c1b535516f97481;10023703;International;International;Istanbul;NÃO INFORMADO;AU
d196edfc89666e8b71729a9091ce0fdb1463fbda7940b7880fd57d8aedf57e18;10024003;Domestic;Western;Benicia;CA;US
f24bf072bf1f35acd3fd14bd0ada6a0888da8d5d1c6a7a72f80b68dc8870b99a;10025264;Domestic;Western;Tuscon;AZ;US
de7efe2d1f83ca5f82c0a3efb181403ba55dec01fc0ab4da4db917786dd82c91;10026009;International;International;NÃO INFORMADO;NÃO INFORMADO;AU
24837dd895d8818f56cb094eddc3918003ce6d7ada097585c94df7001bc33316;10022252;Domestic;Central;Crestwood;IL;US
5ff2cb40716f6a37b32374173fb63cf8da18ccf40c08f342c1ed8156b6a57044;10000469;International;Canada;Montreal;QU;CA
4b21f1823e2d511965f123100936f53ff34ed8a67f1cc2a493534e2a51ebe887;10002140;International;International;NÃO INFORMADO;NÃO INFORMADO;NÃO INFORMADO
ae35646e4149e17478eb4af9c640fce192a1dbbdd97b2d1004267aa431e447b4;10025758;Domestic;Southern;Oklahoma City;OK;US
aae7ef7e3a6d456c5f08892b0cdfa582c61e3acd7816c6450a0882092ce91cda;10020306;International;International;NÃO INFORMADO;NÃO INFORMADO;NÃO INFORMADO
b184b913400fb3bee050852b12acb81c7c8c59c37b426fdab69524d7b7b18fe4;10018644;Domestic;Central;Overland Park;KS;US
87fa07f8d4d04e9365a0c9e69965a78b467f8215321766c99e3d17b0a5a5fdbd;10023516;Domestic;Southern;Miami;FL;US
17e55d885310e1a159bed9416d16b9566ae4112d9bbdccc8ef1563b55558ae9e;10027583;Domestic;Central;Morton;IL;US
e8ed9e897ab3f46f794d04b9a1bc519a12c18c2b12d9f7404ce632462c37f927;10023022;International;Canada;Surrey;BC;CA
fd31fcbaee33939dc5431fc0721b12e7b52e0b8c55275330a33747ba03181ad9;10009643;Domestic;Central;Flint;MI;US
83e44496069ad925a0948222ecd177d617e7086751f09ddaf410049a3c785721;10027050;Domestic;Central;Milwaukie;WI;US
30ff12350782f28e128663f7fd1d1e033496c90ba8215db3238692feac2b9ab0;10021286;International;International;NÃO INFORMADO;NÃO INFORMADO;NÃO INFORMADO
3fe0953a5a1bc3d1ea12ed1d9459fe39ba423a561bc2d8fe3f3ed99c30100a96;10020256;International;International;NÃO INFORMADO;NÃO INFORMADO;NÃO INFORMADO
1e8875e773808a4b62a3b864358d4e5a6501b32e822e1a96b9db7e05cfefdf95;10012715;Domestic;Northeast;Exeter;PA;US
0bfe210eabef7571c29f04289acca35c6f8798b96b08405b44ac1e9f1eb9a657;10004245;Domestic;Western;Portland;OR;US
b4e9d4a9ee0cfffdc8e87fbb9d234e4169e2b2aefa4c9e4f346d0fa8cd63747f;10002220;International;Canada;Prince George;BC;CA
6bfff9cd2f197c485e88e6061b002fa5bbc12e0758a945c8da4fc052abda18b9;10020080;International;International;NÃO INFORMADO;NÃO INFORMADO;NÃO INFORMADO
e55a9e5ba54fef5124a9505b1e7f00a61ffaa7b655aabe84c57eb4ffdbc44391;10000481;Domestic;Central;Chicago;IL;US
62dee98e4717e9950393c092fc9d7695c9861a584c9ff5dd3b10a341501519d6;10021231;Domestic;Central;Middlebury;IN;US
09c30cc92e4119bff5f594d960b9e364c618404642b2956976788130ab26ccf7;10002159;International;International;NÃO INFORMADO;NÃO INFORMADO;NÃO INFORMADO
d362afaab3e4aa7b4babc06461b583ee9d3aa790dc41df30886d17a7b60338c1;10023964;International;International;NÃO INFORMADO;NÃO INFORMADO;NÃO INFORMADO
093cf099f04f8b1db75169b74e44edd3d6e619a2a92c717b9c08a856050a8aee;10004255;International;International;Seoul;NÃO INFORMADO;AU
804d8c74f4331ed5d22c4b099a9e280f1c5b7ffea5f1e32fd32ba76fdc2f02b6;10011052;International;International;NÃO INFORMADO;NÃO INFORMADO;NÃO INFORMADO
72a68ccff6b458ca3b7858e6e8ddd23b07c96488836a38998770de45d840977a;10025086;International;International;NÃO INFORMADO;NÃO INFORMADO;NÃO INFORMADO
13310d40bb2eb8f23a50b46df3b704a83dabd7758f2a3e2f39daa47db920f6cf;10014043;International;International;Guadalajara Jal Mexico;NÃO INFORMADO;IR
c47547d1c7045b4b543e2610050654815632592bc5655a0e10ee8bb08d9fba86;10023489;Domestic;Western;Sacramento;CA;US
00fe3636b895491f8e8cb510ae9ab9459cb489d932a92005eed742aaefecc876;10024880;International;International;NÃO INFORMADO;NÃO INFORMADO;NÃO INFORMADO
631fd0a91c6eabb1944d8ce6ee92cf260fbca083ebfc879ea124f08857702284;10006977;International;International;NÃO INFORMADO;NÃO INFORMADO;NÃO INFORMADO
1f5ed034b1908b3ccaa0158f193cd0523d4a75384a3531595d46524121e53b9e;10023003;Domestic;Central;Coldwater;MI;US
bce9cc9579047ebe197a7004b5bd56fe50ded83469aa1b2772bdd97143ae69e0;10018371;International;International;00-394 Warsaw;NÃO INFORMADO;UK
785fd8bdf165bfceb0481348305ef02635b8d30eef59301f0dc2656fe2af6ad6;10021204;International;Canada;Toronto;ON;CA
a4516f1bae1fe87780bc38296b5665910ff3b77e51cf78cbaf6c29741d531582;10008596;Domestic;Southern;Springhill;LA;US
c95cc69783b644432d10b8c06c847037c5361eab66cbc20e85e786f064288dff;10021380;International;International;NÃO INFORMADO;NÃO INFORMADO;NÃO INFORMADO
bdb64c83ba637cc90965dc34c0d8e6d721638ab03079b257fe69dbd96a8cbfe7;10019682;Domestic;Central;Lennox;SD;US
3c47627e124e7e5612bc5cdf6b0d14464c95ad1f4e04b077cda40e4f570b9dc1;10026521;International;International;Quezon City;NÃO INFORMADO;IR
1f2f511e5ea5e0b31451062b1ace4f6f2f30f5a317ae8be56ff221da0dad3993;10010887;International;Canada;Edmonton;AB;CA
02651d98ae22792de4f845063ebec89dc534520289fe6cff589b4778223d7198;10021242;International;International;NÃO INFORMADO;NÃO INFORMADO;NÃO INFORMADO
7f9cfb76e5ba251f98b016c2e17708509bb4c9ff51c5072f76168256db23947f;10025036;Domestic;Central;Kansas City;MO;US
70fc6d9c667733307d09fb73b01c13b414a382e4c386ac3e7d5595d5927c138c;10022678;Domestic;Northeast;Richmond;VA;US
c8544d428dc774911abcd02e59498401ccf28023a3e95e5618549177c6015b69;10014803;Domestic;Central;Grand Rapids;MI;US
43eb6581dbf0b1c3116d1ebe4fee2977f540c0190c30a2a75ad7ead06f82e338;10025239;International;International;NÃO INFORMADO;NÃO INFORMADO;UK
aa11484467b01cb2ba71ff5cd0ab1ee7f51a9ea3f9d690b4c3a71fd0d5778b59;10005919;International;International;NÃO INFORMADO;NÃO INFORMADO;NÃO INFORMADO
2b05b6b3c26271f7abde11587e4156d14038b030d76eb0455a3b789b55d0fa3f;10021107;International;International;NÃO INFORMADO;NÃO INFORMADO;NÃO INFORMADO
3172e6841502168fde5c51b63e4fda7f099fa4104065233aa6dfd5ed3643d756;10013039;International;International;NÃO INFORMADO;NÃO INFORMADO;NÃO INFORMADO
ff7be526c3d988648412100dc4927f2a04e222740e888816d158b2eb0e82479e;10000460;Domestic;Southern;Goodlettsville;TN;US
907a364ecf950edd13f14067b885a9482f82e98bd25300aed7ed4ecd12b71305;10021977;Domestic;Central;Overland Park;KS;US
96494800ab5bea160e42ca0896414d36dde380f217376f1a0d9caf497ac28f0f;10026839;Domestic;Southern;Greenwood;MS;US
073c11aa6d6bbd08ee32dd9ecefca4b5f8b720d1509ad79cf70a9c4d643bde0f;10025284;Domestic;Western;Hayward;CA;US
d2440ab8948e89f15632598303682b79bbaa2cd87ac4087b813438d819628197;10006093;Domestic;Central;Evansville;IN;US
7bea52d1ad814058764df5809839a0f1f4a0cc4d28beabd2d1e7cbc4baeebc21;10007123;Domestic;Southern;Little Rock;AR;US
8e5bf727526fe279bb3cdc971fbcd11eb68f57f87bcc10023cab163b0c81e0ca;10009623;Domestic;Southern;Gretna;LA;US
202b07bc577d79496cc645699173d4699f06d53753b46f9d68a39fd2486a1707;10018363;International;International;Panama Rep De Panama;NÃO INFORMADO;IR
24e61425b126c1fa038e4fc8c60413ce488f558174cecab590ad2f8c58da7fd7;10008134;Domestic;Northeast;Petersburg;VA;US
e9d23b907d3d0eef449db49303bf567ae94f6da21ac0a125379ce524aa7c933e;10013127;International;International;NÃO INFORMADO;NÃO INFORMADO;NÃO INFORMADO
a7049af419e46eed041028cb8265da77961ef325373e8e41d122574471a911e6;10026062;Domestic;Southern;Houston;TX;US
04ae4915d89a9d9b9db15d6128d11f3a3bb3ef1b8bca8cafaa7f8300b1ae42a2;10015495;Domestic;Central;Kansas City;KS;US
bd1479d28905968bd6935ce2c195e4e692f650632501a856242df0175894f72f;10021223;Domestic;Central;Wayne;MI;US
d8f4cb976a0a1fac7baa15c8c7286155f407b132970629e3a124e8aa5d0d6aa1;10015789;International;International;Jeddah;NÃO INFORMADO;AU
03d2c05b1c10cf3c1c7eaa53616f9881b69e05e88fd4395ebfe8b5dbddfef611;10025034;Domestic;Western;Corona;CA;US
34b1cf344e80384b84d4f8a5424f69b3fe5d18e51d945423481f3ed94ea811c2;10007183;International;International;NÃO INFORMADO;NÃO INFORMADO;NÃO INFORMADO
ecedb0d2f76b709fa9737055108f31b7372bd2b7980c0057701ad8b9cbf276e5;10024260;Domestic;Western;Spokane;WA;US
f0766cf0ec08358a51de816d162d31f7b7ab33fc600db7a2eaa46395cbe4a3eb;10000466;Domestic;Western;North Highlands;CA;US
08e3df21bc038ee1f062c40da967fb4a07c75ac4d6e943161c3280ffbc5d98bf;10025022;International;International;West Midlands;NÃO INFORMADO;UK
007592e196ecab280c7487981355232d083b3fa5004660edc20d57cfd49459cc;10014533;Domestic;Central;Aurora;IL;US
faa67e276e994f19e38e129f528108f0a50cdef835c622f2703be67c7622ca3f;10009985;Domestic;Western;West Jordan;UT;US
cfc1dc47cec24019f5d5ef2e5ecd98f1640edbf3f68ac5c76a3f27c62016e10f;10012851;International;International;NÃO INFORMADO;NÃO INFORMADO;NÃO INFORMADO
5068ddb0fb9f745accbc93335d209d4faa1f23808c86e004376b753686487ab2;10002144;International;International;NÃO INFORMADO;NÃO INFORMADO;NÃO INFORMADO
b13effacb7978afd7ab3c4d4b361e4d1406e02081461222efeb2f126c1de593c;10013052;International;International;NÃO INFORMADO;NÃO INFORMADO;NÃO INFORMADO
871ea23cea6606b952fe96039deb33974d953cd89b05b5e97d2af84e8f16526c;10005236;International;International;NÃO INFORMADO;NÃO INFORMADO;NÃO INFORMADO
0c1d2b7e85ca0901483067487b8a239022024db4fb99a7abae8dbcde79ab35aa;10025575;International;Canada;Beamsville;ON;CA
445c8421f5f152eb71cacfb11a54cf6ceaa13f132f6743e7db1ddaa1320522ee;10013870;International;International;NÃO INFORMADO;NÃO INFORMADO;NÃO INFORMADO
29af3d85164db6d9fd9bf9fbb055289449ac811ba6065fbe97aebfcfebdb7d98;10011842;International;International;NÃO INFORMADO;NÃO INFORMADO;NÃO INFORMADO
01898aa5aa7d732148bf36cfc839354becc9503669681dcbbd4574bf6c64febc;10020184;Domestic;Southern;Smyrna;TN;US
99717d4bc186655ecc8074a23ab1117acb0903483df3210687435c3d32a2f181;10014546;Domestic;Western;Phoenix;AZ;US
99bf592c3f9ed434fe9e9077a62332dd63dacee835c67b3be044dab6a3af80a2;10007457;International;International;NÃO INFORMADO;NÃO INFORMADO;NÃO INFORMADO
4aab6a5e041ddfb37952c934214fe0decb863378bfe443c8dd5c1420b0b239d4;10025238;Domestic;Western;San Diego;CA;US
b554113a4b7d9c549ca68f7610cd98eb7407d2229874c2c9e9441359a8fe0400;10013061;International;International;NÃO INFORMADO;NÃO INFORMADO;NÃO INFORMADO
83dfc4d834595368a2704760eeff71894da1364b674e53f1b767d79a6fd4c87a;10010970;Domestic;Southern;Irving;TX;US
fa3d6e4b989cfb9a225a6cb450d39d25d7cf39f4581d6d9714f85d5fb50ec010;10010865;International;International;NÃO INFORMADO;NÃO INFORMADO;NÃO INFORMADO
945447833ba388006952ac6a0cf47ddba9012ef642dda527e914013b1b120a1a;10020909;Domestic;Central;Canton;OH;US
8d0a3e2f1197bd5a04fb6594032ede5f3e8762799487d6364ac49ccac5d4cfef;10025495;Domestic;Southern;Birmingham;AL;US
a37987910949c7fd2b62095148895ae665301a3f09d48135e2cc6c32d1942505;10020227;International;International;NÃO INFORMADO;NÃO INFORMADO;NÃO INFORMADO
f6fef4aedf736b67b09abe9dcef9cad80951473232a68ff3912ff93484125bbc;10022166;International;International;NÃO INFORMADO;NÃO INFORMADO;NÃO INFORMADO
e8d777afb50354d580a6d6bbe2a1911ad6b1610e2fcde2024ee1a5353bef7aaa;10018623;Domestic;Southern;Laurel;MS;US
7459c42d7005ee55700bd6f5c90894d3553c84e35f569693048d3cc93ca42bbf;10006848;Domestic;Northeast;Fredericksburg;VA;US
fd920ee93a09a6c1f52ca7bdfc27a99dc78f7095960adc3075c445f4390ddd9c;10026532;Domestic;Central;Garner;IA;US
098765449cc03cf2a8174198c3f7701b4635bf51c63205867a2ba3f870029c1d;10025560;Domestic;Southern;Cramerton;NC;US
85ebd25e2f18bd17a64fdd1daf9e86bb220d5c1000018f455ce22ba22d45102f;10027340;Domestic;Northeast;Salem;MA;US
c30bd64e72764fbd76d3b76c316ea446bd655a377bbb36138058a86bde89ab8b;10002501;International;International;NÃO INFORMADO;NÃO INFORMADO;UK
2fc240f6bf28fbe81bac5376a99963667f43b4d343baa3f5ab219a969e27ed8e;10000499;International;International;NÃO INFORMADO;NÃO INFORMADO;NÃO INFORMADO
6658fa13d0b30ceb0aa8190f4da636f8efe919029b281f7db02c1cfa22cb4ba2;10024010;Domestic;Central;Mitchell;SD;US
7fcf49e003975716999d48f8ebe9dd0c4e1608b7534d13a2581d48379adb1f10;10027119;International;International;NÃO INFORMADO;NÃO INFORMADO;UK
bfbc7a0fc76f98b9281177e27e3b63122bd376f68b866f6534f385ae7a88c84f;10024541;Domestic;Central;Bedford;OH;US
8ed4063aae6b9985e4ff43a6010f39a0d138752c5f92190fe522f3f3500ccc8a;10027053;Domestic;Central;Raleigh;IL;US
b1f5842bb7269726a7ac06ef8de8b3b6526e08cef4057d47725f41da3b259a52;10023235;Domestic;Southern;Houston;TX;US
28e216cce407371b1304ce9de6d8f84846cd19999448076a4937483907ccdc2d;10025246;International;Canada;Winnepeg;MB;CA
591d499e42d85a8daf70b883b344c4ee23b661bccf6f9be6fd6f50f1b6aa8e56;10006037;Domestic;Southern;Miami;FL;US
7cdd8a675f320b72e546a544d46a369db0d9f5aaeb419b7c00749117426402ca;10022730;Domestic;Central;Warren;MI;US
7ec9bafb81f5c572e55f10dc907fe9a8af435dd62468bf273d99a2b1af964477;10023447;Domestic;Southern;Tulsa;OK;US
f31c0ec373e15a78471092991a282f1c40f72a1b9b2b20aadc175a541eb57309;10018885;Domestic;Western;Pocatello;ID;US
8b7fce81013d9893cffbef837e9489c0b018389404bdb8378098cf9da8dc6579;10026861;Domestic;Western;Salt Lake City;UT;US
fb2ae113aa07f87748d8fa774b1a241457ac0bb095c010c5d91f4489c822206e;10015253;International;International;NÃO INFORMADO;NÃO INFORMADO;NÃO INFORMADO
6ed1be2a18b2234dd36670240cc240e4cd170940eb782fdc04cdd9297c13fb77;10010990;International;International;NÃO INFORMADO;NÃO INFORMADO;NÃO INFORMADO
f81fa15b3cc4a64872b406efb9672931ae9f5f009c34c43570ee7df0c51065a8;10002526;International;International;EE 0026 Tallinn;NÃO INFORMADO;UK
8698fe86182d39e815f2411c506713700ce8b2192b9096c320a6577677d53291;10000601;Domestic;Southern;Creedmoor;NC;US
3f644500a6099eb026cb4bf8d7168fdc341974c9a5d89f220bbe850dc655e735;10016045;Domestic;Central;Monroe;WI;US
c239239226bd48c4300afbadcf5d865e6dd9b0decd409daad7e83830fe8762f2;10017036;Domestic;Central;Eagan;MN;US
c6ee9fca11170c6fadd9f974f60ccb73450a76b1665774b7d6358c790db370f0;10026023;International;International;NÃO INFORMADO;NÃO INFORMADO;NÃO INFORMADO
6046e30ddf73b48fc1482ee365bf8e170affd690404df6e71db2d95c799a61ef;10012761;International;International;Cali;NÃO INFORMADO;UK
784d3447eebb7371627970c9e6225223eb06d2af17c8f4309181f4cfc1b97342;10019400;Domestic;Central;Valparaiso;IN;US
4833126c581ad4479ccaa60a37a40960f1e4a25347eaf5b71287c315ed854996;10012226;Domestic;Central;Troy;MI;US
d503c2be61545dd1667d846dec9f8ce170228f03685c3e4d9b8b8d2837d54336;10026334;International;International;NÃO INFORMADO;NÃO INFORMADO;NÃO INFORMADO
259167033563f9340f03822851300e62ef1471e12959e613ca41f8073ea859e4;10025025;Domestic;Western;Auburn;WA;US
b0ea82f6b28024b7cd2c8040d0d336a84a98163387baff0297bf6ffcecc3aa0d;10010969;Domestic;Central;Elkhart;IN;US
abed5295da3584c47c280d0960c715f167699b71225666f9c7df080092207a19;10024246;Domestic;Northeast;East Providence;RI;US
61dfe4868236013950fbf81834289b634ed89f69cb6f073b20ce735398f37e0a;10026581;Domestic;Southern;Savannah;GA;US
afd5ea71f51b8189f5cd24ae9781a86028154d9aa54afbd6909576d289c27cbc;10009676;Domestic;Central;Kalamazoo;MI;US
9ce251d3e910f5b94c3940c2948ec8927b5f6fb9b88350a0a6786c503e8bc8b7;10002154;International;International;NÃO INFORMADO;NÃO INFORMADO;NÃO INFORMADO
33eb172e548a424c83e4dea83d491c1b5fc8e2ace7690a02c76e36d4bcf0906e;10016609;International;Canada;Winnepeg;MB;CA
338a540b6cd191ca8a828e41be4a0bc632c23ec896243814abcdcb2c72a53877;10020914;Domestic;Southern;Calhoun;LA;US
9b301e16a882b4aa7be9a31f23317e34feb36196c5e35ff158242937495f539c;10011018;International;International;NÃO INFORMADO;NÃO INFORMADO;NÃO INFORMADO
a92edf0ec1993fc48875ebea5a34182051a573dd35b89995a30e449bf087edc8;10019879;Domestic;Southern;Duluth;GA;US
6aebfae281c76fe46beac66785ec2b97c956cfc375a40dae27433314f26a0716;10005861;International;International;NÃO INFORMADO;NÃO INFORMADO;NÃO INFORMADO
1b2f4e2150415c74dc056b5f904f6298a00f3f0f11d962ecd1029598767b2f7b;10020445;Domestic;Central;Rapid City;SD;US
e8a21c22b252f4591ca3ded7fdb62ef2c03c882fd633d74907c7dbfb590907c2;10017072;Domestic;Central;Chicago;IL;US
b11fd7b6a3b471bfa4d1f98c2d2c9d38689605ed110a62760706c1c0331e491b;10009654;Domestic;Southern;Brownsville;TX;US
f855fd5400446560fbffb8279dd2f07d31b50c823680726362c76b5f74d98440;10022490;Domestic;Central;Overland Park;KS;US
ba7dc43c86aedfe3053d8513c4443ebd243f093c27a89a9fe0ce09cbad663f78;10000473;Domestic;Western;Rancho Cordova;CA;US
c85076b720eb25189d2812329b2f8f63c089f7e5328913834094dd7f59f446ea;10025250;Domestic;Southern;Ooltewah;TN;US
8e53ed633b0dc627be4795e68ae6a963b90ee31b9b5a5f46fc8166b2105c53ce;10022240;International;Canada;Mississauga;ON;CA
cd2f3abc2fd9935677f3de9d31393ecaf8a53ab7590c3fc9633d651043e84ce4;10021240;International;International;NÃO INFORMADO;NÃO INFORMADO;NÃO INFORMADO
a6e3c49591e5d7b410bb85584430c87bd3ba1d10153aac1f954d1f1e4dfcee21;10014810;Domestic;Central;Canton;OH;US
f016f7992dadf1275ab7da41c1520be6d7f49754fe3a766906b83d118d38491e;10021668;Domestic;Central;Independence;MO;US
5dbaf8f02893e74a7c92b4c661693831d82bb03baebb8d2504713aadd29f1cf8;10013509;Domestic;Central;Joliet;IL;US
d6f22b23281d8991f5f39779c14b30d7986300b1e2556eb5bb25419f622caf35;10007536;International;International;NÃO INFORMADO;NÃO INFORMADO;NÃO INFORMADO
14166b3c8d3f0077b05551c6041058b4c8651be3a8e981b235bff731e79a8ad6;10001103;International;International;NÃO INFORMADO;NÃO INFORMADO;NÃO INFORMADO
671130c91930060e6089a770b466c7967771b05ca9ef66c6ceec89c62b9561b7;10013871;International;International;NÃO INFORMADO;NÃO INFORMADO;NÃO INFORMADO
9ee758a849d14c169c5c28b44213c48087d7794f8ac49a4e3d506f61cfc8d537;10002153;International;International;NÃO INFORMADO;NÃO INFORMADO;NÃO INFORMADO
f2f98b4c4e8b4cf45ef8b06a13fbdefe9d00e734da97c97d4812e2761789e5e1;10023471;Domestic;Southern;Odessa;TX;US
ccbebddf6bd2099fe9448712087a566dd92c6690cd50c007305b523bcb13ea92;10014059;International;International;NÃO INFORMADO;NÃO INFORMADO;NÃO INFORMADO
e25a394049314f8f13f831c609a54b306cfd1567f72f890e060d3fd096c19c3c;10021750;International;International;NÃO INFORMADO;NÃO INFORMADO;NÃO INFORMADO
3b7e53a73b7253b2b5c3cd92528035e761bcf8cde4290fc2876ea476a4acaf27;10014047;Domestic;Western;Fresno;CA;US
5ed2b73b3092620d11085cf84cec074c23b88eba39767f00fc627cc24a369b91;10010717;Domestic;Central;Waterville;KS;US
567e04ae508b189be97a6b1ce7af36fd5e26c17fa296be8003b7b2197bb29749;10020849;International;International;NÃO INFORMADO;NÃO INFORMADO;NÃO INFORMADO
bd0087390131c6a8a8e0054909c563395ada0216f73366ed6537d9fd692aea05;10025919;Domestic;Western;Compton;CA;US
6884e1f8b6d5264bc7616d80ee982a338581d06bcc08bc561070d89d6161e033;10013341;International;International;NÃO INFORMADO;NÃO INFORMADO;NÃO INFORMADO
aa98ee92f92645e7c05cace7721698782f0464d11649bc30e59cfbcc99502946;10019388;Domestic;Western;Ft Collins;CO;US
d730d245d783f929a2547c1076122c92959c2c9aa63de1ad2a2594c815bcd818;10020982;International;International;NÃO INFORMADO;NÃO INFORMADO;NÃO INFORMADO
359c5c5816ccfec26233ce29e408c26535ed1456a4880ba9ca813b567e928a05;10018867;Domestic;Central;Flint;MI;US
fd89b71a061972295febe5868a29cfa4a9e536003c778ae12f7e75a38b511c43;10003720;Domestic;Northeast;Hermitage;PA;US
78565c714cb3bd3d3d8c8665d5698565919147f761938d8d77c7a14727c890a5;10025583;Domestic;Northeast;Nesquehoning;PA;US
0d28ebcbbd86014d8f58f57be7cfbd07ce66e61d835eb93130a077071746a66b;10012425;Domestic;Central;Oslo;MN;US
8b0dd19f758f58f1efecd4365b669516c3e70e95770c688cd673f04abefb9cfe;10000486;International;International;NÃO INFORMADO;NÃO INFORMADO;NÃO INFORMADO
8d3b83aa3fe70ea3ff7374175929f65bd9795c6ebc487a0127af9c3bc6cce5d7;10025062;Domestic;Northeast;Bedford Hills;NY;US
0794ba5b1d64aeaa1a0375ecf9ab0a67f2bfe51e68ca3016a0f19b1aa49ba9bf;10020192;Domestic;Western;Sacramento;CA;US
fbee94d23e43c17573a0503358a797e4f01ce2b945eafef6a81e252e135f231d;10011093;International;International;NÃO INFORMADO;NÃO INFORMADO;NÃO INFORMADO
f926c82aedf7253fc0953576ebb8bd7a18edd16ea16db45762ecb76ec3636fb8;10001786;International;International;NÃO INFORMADO;NÃO INFORMADO;NÃO INFORMADO
68b7f89db64b9097f720f061f40abd0aa985e9eabee48d6a738a6442b22c0f37;10024248;Domestic;Western;Portland;OR;US
7540e1668e5cac1afd7373bedfc4a905638414bede608afff107f4088048f299;10025771;Domestic;Northeast;Waldorf;MD;US
68a3452c356777efdf8b0fe470a5adbee0a4ef21c9eea78ea8336dd7b3309344;10015886;International;International;NÃO INFORMADO;NÃO INFORMADO;NÃO INFORMADO
8e7769d9d459567a792d0cce3d589da229ed61005a50445268f97c90eea2bb36;10020864;International;International;NÃO INFORMADO;NÃO INFORMADO;NÃO INFORMADO
0cc301660c94f6bb3a8f54554f30806da93983658f644298ec929f33feac96ae;10019105;Domestic;Northeast;Mechanicsville;VA;US
36841fa3812afe7488da39e1ce32c66856de90676156f7ee5ab25b84eccd63ac;10024524;Domestic;Central;New Hampton;IA;US
a03d94e6220bc5ca6f38afabc0efed79d5fcf85c168ad5028b5d5d858ea30f3a;10021203;Domestic;Western;Costa Mesa;CA;US
c6a9898a737cb1fcbc7ce148fd55baa4d6527f837909379ca603c60e98a3ed9f;10026843;Domestic;Western;Tulare;CA;US
2a3759a1bb3d06b6ec4024aa46d13f7d5116baf45b4a803bceeaf86ab227ff42;10003857;International;International;NÃO INFORMADO;NÃO INFORMADO;NÃO INFORMADO
45eefd1f1578a626cdfa8da573e88e9718f71818249ea75f17c4aa7a48f11c8d;10021494;International;International;NÃO INFORMADO;NÃO INFORMADO;NÃO INFORMADO
0605064c2fe9067bba27797befaeb2ef330adf39a244c4d8af7130560cd99878;10024942;International;International;NÃO INFORMADO;NÃO INFORMADO;NÃO INFORMADO
d0b5868743791b6ab5394d0991352b360164ac71a3338151957fda00714daf2f;10021996;Domestic;Northeast;Milton;PA;US
bb8e13ef18b379bdec329beac0aaf4b8d1766304ca909a1800ff437deafac9f6;10022168;Domestic;Central;Cass City;MI;US
c62f63735fdd734b8c133283ad13f179742d37f3b878110fe9cf6cd1b801d5aa;10015325;International;International;NÃO INFORMADO;NÃO INFORMADO;NÃO INFORMADO
eee8a090e306ce3ee8bc68bb0279a6a9dace8e89bf3be951720c39cadf7d1140;10010974;Domestic;Central;Chippewa Falls;WI;US
cfc1cdd193348603688fe67309f861f7c62059f684322a03e9a956143e95fa39;10003554;International;International;NÃO INFORMADO;NÃO INFORMADO;NÃO INFORMADO
f5c713c054f69cf34404c958994e9a7393d72edf56608758d9b56253e9f6682f;10025392;International;International;NÃO INFORMADO;NÃO INFORMADO;NÃO INFORMADO
1fed0f45e5048c7d2a38bc182ecbef5402fafeedd782cdc7a222b8ae4dcdaa08;10012161;International;International;NÃO INFORMADO;NÃO INFORMADO;NÃO INFORMADO
a1f0378be156c640f50ff02b9f29966a4146e8b6541c2f78aa708ff6a6ca2aa9;10022750;Domestic;Central;Watervliet;MI;US
2e7b28cafeaca36cc5190f8ebd4d426b3c676f841e934d955873f6c73c85a704;10021184;Domestic;Western;Aurora;OR;US
376ff1593480fc098a74847a1aa865920007f6ab4f959976def7d29a14d67375;10026299;Domestic;Southern;Dallas;TX;US
f892cd84dab828581b78a25130bd3cb2b6f1b28d6ed22ada5ee3458efc294e4c;10007122;Domestic;Southern;Buda;TX;US
b79563a7d6510e859da2b772be863782c47a91b5e81ab2fd8133443d361299d6;10027082;International;Canada;Edmonton;AB;CA
bf35ed6e2f05a87a6b2c7230d17257bfe54211115547c55ee7223e3e31dfa9a6;10000472;Domestic;Western;Van Nuys;CA;US
b1d83718f6316e18f9c6407b85743d7f832f87235516c246c0163fa7be255af5;10007258;International;International;NÃO INFORMADO;NÃO INFORMADO;NÃO INFORMADO
03e94053e1cf33dc5622663721ca4484b16c2b20f3b0df5495db106dc13d02db;10015011;International;International;SE-132 28 Saltsjo-Boo;NÃO INFORMADO;AU
77b18101bea4ad3184e90da4fa0185cc88a8a6ed41326e0f3ac8a08de3c75a0f;10005922;International;International;NÃO INFORMADO;NÃO INFORMADO;NÃO INFORMADO
bf25bda56bddeff2a53f2cc56082903b2b79e7818663f0838204908dd7cff255;10025287;Domestic;Central;Brookfield;WI;US
138884f50240e1c4aba229445c828beb83d7c04941f632c3b083e207a0fbc166;10024006;Domestic;Central;Columbiana;OH;US
a65ba486be4aae8740696bd6d60405ce72a9e45688f50f23f3497adb6abb51ce;10021459;Domestic;Southern;Olive Branch;MS;US
c47ce2342554fa8baad7143bda522c61ce4e868fe4a96eb080d2f86e838a7670;10022431;Domestic;Northeast;Vinton;VA;US
07f48d89b0b143439599d9963edc1b05585bb5560f736923bf64654e24cf5077;10025778;Domestic;Western;Pomona;CA;US
ef31e16b6913d5bde9bf08af571c9c6aa3cb2a70b8dc248e530557631e1e0024;10009639;International;International;Industriestrasse 17;NÃO INFORMADO;UK
3da6ec8138e955fd36be5ca3ef3ddf6fce0552c619ca64bf9c5589bce9f1ceb0;10016548;Domestic;Southern;Mobile;AL;US
05e684ea04a3a25e4eff3280a5fa04eadc85d3a34df02e1c50ec12bed1ec7f88;10025737;International;International;NÃO INFORMADO;NÃO INFORMADO;NÃO INFORMADO
4febde975a2e8c676c5727429eed1e7fb7124a7120fb6eba63f3be2cd522922c;10011732;International;International;NÃO INFORMADO;NÃO INFORMADO;UK
73f5d35b0a68b96a4a7ff04d3104faab439fb819782a3850103fc82daf92c0f8;10025769;Domestic;Western;Redding;CA;US
4c48c38644ddb3ab99a340fae295ddd2007fe2dbbeb63ca87bab6c943603a4d2;10025158;International;International;NÃO INFORMADO;NÃO INFORMADO;NÃO INFORMADO
c1ecdaf3e72167c755aa3c6be649edd92a98137454964d208f1f6903a13eb807;10022450;Domestic;Central;Overland Park;KS;US
428923bb4839d8db99f700c18bcb130f8f684c36153c0187d6ef50bab7fbd426;10016588;Domestic;Southern;Schertz;TX;US
968d6c747222dec81b6e738c5f9e11c30bfd2f3d5572d3d34e219f63ac33c4d9;10026081;International;International;Bremen;NÃO INFORMADO;UK
37dda6db4c75161076a36a0a04a1da342cfbdd1e2b1c5cff43603451631104ce;10020672;International;International;N-0598 Oslo;NÃO INFORMADO;IR
24f02a9535cad4edf6b68a563e9a469362a1e73cc83505b42176c35a4206ca1d;10002709;Domestic;Western;Albany;OR;US
416b220e3f4e1402170c86b0d2774377553eebe527ad872ab6740f4019dd6027;10011734;Domestic;Southern;Atlanta;GA;US
7ff7c8d2b67cdd1a5e2e274133434d67e877e5d6cb8a24f2ee8522f0ea271e8b;10016113;International;International;NÃO INFORMADO;NÃO INFORMADO;NÃO INFORMADO
b0476edcead5361ce234c2c7b803d02af01d701d7cb57cf980b3882871e1b440;10022444;Domestic;Central;Livonia;MI;US
bcadc46afe4cc049da8b23040af245956a7fbeb26fc785167a5edd3b43241b78;10025252;Domestic;Central;Elkhart;IN;US
db987397fc27c8365a10b96df1a10f90fecdb84f6bb69817196229274c02e140;10020931;Domestic;Western;Bozeman;MT;US
7553a4c5d04a9be3d68c0f209aa5eb4295502d4972b3e9b896205fe57aceadfd;10008593;Domestic;Central;Highland;IL;US
21ca54bf7ca298b7effc624b90b0c717dca7163db66fcd7916a7507606eb0ce2;10023212;Domestic;Western;Medford;OR;US
28722ecda322ac7e2d118b2e69098a69fc6cf89a9d39525d2e6eadacb21dc959;10020332;International;International;NÃO INFORMADO;NÃO INFORMADO;NÃO INFORMADO
343fd171fa58c7d5e79f54d82efd2e137df085f9bee604ad6d7bfb666d6da516;10014495;Domestic;Western;Clackamas;OR;US
eeb694f5fe66043459569c9a8e86e3acf610620257aff226e8fcbf399dc3d6d6;10026038;International;International;NÃO INFORMADO;NÃO INFORMADO;NÃO INFORMADO
33e137c1ee936f9281ffce494b15eb12c5b6c606c8d258e1548012ec22dd8240;10006836;International;International;Quito;NÃO INFORMADO;UK
98654a0e31a89432723a4be61cfcd6e87c3ad5d5171179b6a7c1bce281d43cae;10019900;Domestic;Western;Sacramento;CA;US
b20847023cfa24bf09ddd4f80f26e3dc975826b414e91263f7906301838e197a;10010935;Domestic;Central;Sioux Center;IA;US
aafd9e19bdb131d57605ea709753f825670251f1fd7b91cbbd2d8612020496b1;10021006;International;International;NÃO INFORMADO;NÃO INFORMADO;NÃO INFORMADO
90d5195c0ec2b9c84cb1db28ba1db52319dca885263efcae0f4e3eb46fb5ec31;10007577;Domestic;Northeast;Stewartsville;NJ;US
c5828880939031dc2cf8627c711e7ba09710210b82f71b091761d96c0a54b9f2;10000474;Domestic;Central;Des Moines;IA;US
9296c5c03ef254333ed0a1007cde23002fbefee8c639f6d3493191b477597e74;10002240;Domestic;Northeast;Medford;MA;US
60458ebc278b6caa20ab609bc6332bbe383ac16da6a79c4bb7857ca106db59c1;10021160;International;International;NÃO INFORMADO;NÃO INFORMADO;NÃO INFORMADO
ef7596073a60c9ec35f352fef87e670a58e5942a837f4d46531ed7c29c526889;10023757;International;International;NÃO INFORMADO;NÃO INFORMADO;NÃO INFORMADO
b4d01e68f5a6b7d790c2f2bc6b8345e8211fec2af00dd78056e019adfd02eb55;10005006;Domestic;Western;Boise;ID;US
351e2589b4887cdd121c3de38f9242d20864176750350c7aef3314dd734c98bd;10007448;International;International;NÃO INFORMADO;NÃO INFORMADO;NÃO INFORMADO
c3203789bde2f27822a707af6897c20a6b24a37863b09fa8907c42675045a8d6;10019617;Domestic;Southern;Spring;TX;US
8b31a6c4a08a4915edacdf9b05635cffa9da629815bf2bbcca65fce6dcbd43f0;10019410;International;Canada;Edmonton;AB;CA
e522a5c732b1484d0754ca4cc5c484f80d70a7080816e0ecc4c19263bd747fc5;10020927;Domestic;Central;Sidney;NE;US
1bf77afda29914743faecc54b4f355665e03ca9aa545123d18f5ff61dc60d6c2;10002520;International;International;NÃO INFORMADO;NÃO INFORMADO;NÃO INFORMADO
aa902c03ba37342054f5f49149fee1afe6c25521de9eb92d542df2d117c17dfd;10020515;International;International;NÃO INFORMADO;NÃO INFORMADO;NÃO INFORMADO
cbe11c283b3a070a96eae467cea8cd6c018cf85d26bc7743c6e258dbc4de03b5;10019512;International;International;NÃO INFORMADO;NÃO INFORMADO;NÃO INFORMADO
0cbd8fb78a833a31c56e537a4cd260172fc95c0fd75bb96578ed3d7b471098e4;10017828;Domestic;Western;Cypress;CA;US
bce071a0d93a4b98735a8a67a0045dd0b7e8f558eaf042a2201e3707ea99cc7f;10025298;International;Canada;Toronto;ON;CA
9e7ed94ab9d9d868a4ce737b151237aad740ac89d3914b17abc88c69ef2aa90c;10010698;Domestic;Western;Gardena;CA;US
1f41ec319adafb3161a649569f64648e7bc27b37ca90fbc6d6264288ce1610f0;10025296;Domestic;Central;Sun Prairie;WI;US
4c8c79820981dd9a0702e23f0e39d78640a3dd65adbab6a9ae5eefc59b56d3d2;10020390;Domestic;Central;Lansing;MI;US
8058e2d47896586e68b9c284e64ca80febe0ca735b704785eae0e4852340617b;10023538;Domestic;Southern;Fort Worth;TX;US
b276cadcdc76af786a7201d6bc208d3e54db00eb81f81baeef8858340ca2406e;10002244;Domestic;Southern;Statesville;NC;US
998af02b065ef66d77534bf7a6f8d86d52760921238f81ca9be9c8990c5b0c1e;10011981;Domestic;Western;Missoula;MT;US
40745e488842d5b8a71c7393fa16b52e7a20204b866aca8bd9f8ce002398dc76;10002161;International;International;NÃO INFORMADO;NÃO INFORMADO;NÃO INFORMADO
b908f2abe7dbcdbf221b8786fb56c92de46f8666c4199ffbef759bf78e05bc98;10014804;Domestic;Southern;Shreveport;LA;US
25f06163d8de10bbfdf25b2823decc03dfc53cc284024256dcf8827baad18eee;10020907;International;International;NÃO INFORMADO;NÃO INFORMADO;UK
206cea7927dc09f7a72fc90e46d4a3ced5534491d00877279d3e9d65ac931c93;10023511;International;International;Schiphol-Rijk;NÃO INFORMADO;IR
9d9644c31c8c54cf0ae39becece8e334500a7c308d8d452d6b8868356cfe179e;10024009;Domestic;Southern;Tulsa;OK;US
6822c5f212ade3929f3e4f26d7d4fef53c733c69299518cee364eff30d1d4d72;10025032;International;Canada;Montreal;QU;CA
15d57f46c67ab9cd2f60c921c83e7b0ada525ccc7cb218ae23428da985a49e13;10022687;International;Canada;Burnaby;BC;CA
0d74c3bd14a865e87b9f0227363a2b39ef321f5461afbaa0920f17655c734c20;10025037;Domestic;Western;San Marcos;CA;US
8d49533b3ffb3ad0afc8c6638a9d0e25e8eed773419dc2ccd905160932ecff4b;10027381;Domestic;Western;Tumwater;WA;US
67ed77d36f58d3da88f92189fd539648512feb6bfbff2be2bf0a04b92b060102;10022732;Domestic;Southern;Lake Hamilton;FL;US
bed88fd06080bb8db165e0649c4a7c9bca7bda9897ff67895fcaee21c996d86d;10025038;Domestic;Northeast;Mechanicsburg;PA;US
581292dc456896f9cef2bc4eb7932d85bcd8e23dd744e088e713c21ab8d27f28;10012422;Domestic;Southern;Saginaw;AL;US
acb2a70736f2204172be1a83f45e36a8e8d9cdd092da10ea67894c0e3f74db1a;10007866;International;International;Sao Paulo;NÃO INFORMADO;UK
812a1145e59201c25228cf527ffc433fca7411b136890571deaeda008bcd6430;10021305;International;International;NÃO INFORMADO;NÃO INFORMADO;NÃO INFORMADO
d753a7faa4b6415b031e6c7490ad0e29251dc3a761537aec46181b1c15eba8cf;10018129;International;International;ZI 1 Ducos;NÃO INFORMADO;IR
668459ce95937a2e02b3fd08c6def8a9b97385977c22657e97944b97a86cea25;10021412;Domestic;Western;Clackamas;OR;US
fba231cfb67e9301eeed1a75648af8da01a0b05fb1e14958c80f1fb5d10ffc95;10013472;Domestic;Central;Indianapolis;IN;US
d81a54cbfd9fe608de029137f6cfb2575326c5d12cc07199b2662111d26cdd7f;10009885;International;Canada;Winnipeg;MB;CA
b718f14d58a15bdc1154ffe16d3a92af62a5eb769df127dc758d2e37f2f378ad;10016334;Domestic;Central;Overland Park;KS;US
23b1e1476de37abfdb8ea60885f7f89b7b0004ebc22b977e71beb70554a5b662;10002128;International;International;NÃO INFORMADO;NÃO INFORMADO;NÃO INFORMADO
d58e8f3fb866636c9def6222c9932fe17342e79620920971752ddb95e27eac07;10018628;Domestic;Western;Tigard;OR;US
0283a67d975e21a6c280d2aa9ddcd2e1e68e5d1559ce4a3bdec02a874a914f93;10023495;International;International;NÃO INFORMADO;NÃO INFORMADO;NÃO INFORMADO
59cee105966b73d3747d372a58e7d353c3599ecfedf7dfda4339b2efb78225e2;10009631;Domestic;Western;Corona;CA;US
790dac60e28cdb3681a02e7e0516add6522043c4b62890d2e3b5cb0156f138a8;10018580;Domestic;Southern;Beaumont;TX;US
30d2957a9f7ada78f661df9f9dd6001e3a4fa55f8ab05f89005bc1d813117199;10025021;Domestic;Central;Depere;WI;US
3eb6ce0cf00f50be52253cd0237ba426f711356ce7fdd6eb10777c44b6473769;10017307;International;Canada;Anjou;QU;CA
8e48ecee8b41696a09bb5af8739a831a3e3764a2c2c52faa549d016c5ce3a44b;10024725;Domestic;Southern;Jasper;TX;US
11d1287e4f88698b2d528ad6ae18205be821664bbd3cc7ad52d57e92666401d4;10012128;International;International;NÃO INFORMADO;NÃO INFORMADO;NÃO INFORMADO
3920fc12eaf1832c96161937c88f3378bd792f54f377ba884d1e38f322f537c7;10002746;Domestic;Central;Bensonville;IL;US
7f2f4be135befce468079c61eef7e7fa5dc2ed1ed30b4bae0b5c9653eabcaf7a;10019514;International;International;NÃO INFORMADO;NÃO INFORMADO;NÃO INFORMADO
3aba6e8fdecd96e64a999f92c18982867d1d235362f1d7d39e391d7c865d64cc;10003795;Domestic;Southern;Baton Rouge;LA;US
d0da865534130c6fd678c050e0a5e2d6c98fe8761c62efb013307ee5a108841e;10015793;Domestic;Western;Sacramento;CA;US
5c211883c8e45b9cbace6e62c7e52160e0ed06b29515f60a37b048ad02685519;10013238;Domestic;Central;Janesville;WI;US
68cca27385ca4f9ce73e3d980793dae24fa95dd5f198d3961dd7d4967449089b;10010884;International;Canada;Boucherville;QU;CA
05da302aca83d3ccab532e6ae12a652b3f29b5365118235649bd47fe91fbf9a0;10025418;International;International;NÃO INFORMADO;NÃO INFORMADO;NÃO INFORMADO
d188501b3332ec703ae8bb721d65eba42f77ac67d57b8a1a2ad1469ce48c9c75;10014264;Domestic;Central;Springfield;MO;US
2da6c013ab28c5d78428ab84a20fc086d5f8787a22e8b072f1e6fdc88e9bcbc9;10019897;Domestic;Southern;El Paso;TX;US
6f5ff3ba304ee95a8abb226888cabac3130c48612227cc9012147a0177e105ae;10025305;Domestic;Western;Colorado Springs;CO;US
6fc3ef7e4fc904d7baa36d010458d29e1fee897816b4b311f8e87dcdc5b30cae;10020449;International;International;Santiago;NÃO INFORMADO;UK
f092667e4e37a532fc6c8abe5ba2ec500a67bcd1d3498ad9fdbff6be552b9ea4;10021158;International;Canada;Surrey;BC;CA
f22981ac2b3a43ca5650d870c2cddf85007e212e9e279b28c1f7ff58b7ae1f35;10025251;Domestic;Central;Wooster;OH;US
41d88a00821c0aa456adbc46844ef87d2682f47207660065e949553cf61ca400;10027560;Domestic;Southern;Odessa;TX;US
7fe75293b4c200355b46f99939bba5c54da58833d6dcd91918ebbfdfbb30ee48;10019066;International;International;NÃO INFORMADO;NÃO INFORMADO;NÃO INFORMADO
70e63e35732529ba271cb816484240484add38b45e0d354732a73f6b75e9b8f5;10006862;Domestic;Southern;Pearl;MS;US
a4fcf1ce37c131bd017cbd8f153cc8f35d9cfd0aa5932254a0b91841c800a22e;10026606;Domestic;Central;Dearborn;MI;US
192825b88b14794b17694ac35720a2b6f86349b3c4fdc8fe99b1f00797e638ad;10021139;Domestic;Central;Livonia;MI;US
ab222c26f7f71c2d4943855798fd6920978ef9659260beee8ef8a34717b25aa4;10024016;International;International;Kanagawa;NÃO INFORMADO;AU
e9fa8268aa6ab7befd9fc06567323d0ed5b6266d96bc48938fe6c8b3edf86fc4;10025052;International;International;Songtan SI;NÃO INFORMADO;AU
dffa88cfed3cb8f270bb57fd1a3eeda066f04ed8ad01abf9d91063c5f6576e69;10026438;International;International;NÃO INFORMADO;NÃO INFORMADO;NÃO INFORMADO
616897a1146e4b3e4660ccd19524d7ef38d748485a056de59bf71355896b2742;10004302;Domestic;Southern;Baton Rouge;LA;US
6605d9d902442a9ee735688350bfedb1d628f4518dc89718dab7fab16b7aee1a;10002506;Domestic;Western;Salt Lake City;UT;US
1066c93128c2a79b2b6c7d2d483e2e14bfe49ee8706df69ad205ac120fc347a4;10021145;Domestic;Southern;Brookhaven;MS;US
3a2a383474a1cd246c0bd3d6cb02fe1d32f372738722d3bd8703a5b943433708;10025285;Domestic;Southern;Chattanooga;TN;US
c001daf3bd95789b587b0dadbb767ac0d4f43a243e541f4e27a18a7a1148d72b;10021111;International;International;NÃO INFORMADO;NÃO INFORMADO;NÃO INFORMADO
8d1de5e9fd242f3849b199e6b8a07f3d8ab25d04a6fd51b5d75e196dc831b718;10022746;International;International;A 5102 Anthering;NÃO INFORMADO;UK
4bd8d2df44b30ecbd04edf6f221003e01ba887b0cf5cdd86e1eb20ab66bc632f;10019194;International;International;NÃO INFORMADO;NÃO INFORMADO;NÃO INFORMADO
4c1108e0d756da268a8b16630224b5fea3c7fb3005468d2eefeafae42da48e39;10021418;Domestic;Western;Wheatridge;CO;US
318f479d3ed3dfc6f12fd646820657b20b545a603267ab72847fd7ae27faab06;10011398;Domestic;Western;Eugene;OR;US
f27b7658d06cd9d4b7a2ba7bfbfb285c4ed4f23695998e7cc7d94a5d8a358544;10020868;International;International;NÃO INFORMADO;NÃO INFORMADO;NÃO INFORMADO
75d6f3bb42ac823fc1607fffab583d2746b700e90f7366521384af30656b486c;10012157;International;International;NÃO INFORMADO;NÃO INFORMADO;NÃO INFORMADO
b92c57d64dccaf7e9df7f26b4dcd9a3c310685aa20a33f3b0dd17dc1770250ec;10008381;Domestic;Western;Puyallup;WA;US
c22d11057105a6c6e8744d48e50f5630f9bfca9146b6cbc1b0c2b1c30b98b833;10025791;Domestic;Western;Prineville;OR;US
d5d13f85950a62082827230f9e56f4f3341b7837c24cb470930dd275b48e813f;10011521;Domestic;Southern;Okolona;MS;US
af3be027e8311ad16c8539dfad7e571b8937d80a352a9cdbe0d2e16bd57814d0;10024270;Domestic;Western;Maxwell;CA;US
0b16ee224c5f15b0ab03fe45abe29b9fbd751a07dd10b4b12a39f9d713d80155;10025299;International;Canada;Montreal;QU;CA
fac4db59571b6f0d30933034a73cd6829f48f2c4787b078d312b64d9a8c423c7;10000471;International;International;Jeddah;NÃO INFORMADO;AU
c79b1b3bef83f3c9fdb5f0e6ef85b92bf134703f7d10e3d52ef6963d423aece8;10002155;International;International;NÃO INFORMADO;NÃO INFORMADO;NÃO INFORMADO
c3aa6f6326b2d831cc4ba1ebe403d54f01c37830a958b6e4e3eedde4091596da;10013397;International;International;NÃO INFORMADO;NÃO INFORMADO;NÃO INFORMADO
e42739ff3db2b887ad47b25e77d79277b20602de6b6de694774331c8911f0aa2;10010906;Domestic;Northeast;Frederick;MD;US
fd9a5c27aee53ce3279378251d8384d17577a14f8cc2653ab919da31012145d0;10022978;International;International;NÃO INFORMADO;NÃO INFORMADO;UK
32aa96667fa4754ceef2d75de4693751c2b2441be9c2e1aaa4fd17dff3669eb1;10002150;International;International;NÃO INFORMADO;NÃO INFORMADO;NÃO INFORMADO
e5e544053f32ff549db3ab96cfbb01ce09b50a42ae82fa9a30063c0b316104a9;10023513;Domestic;Western;Stockton;CA;US
929e8ac3920c6e17c6a0b9e9448171a02ec0431774580aada1b09061cfe0ed7b;10020639;Domestic;Southern;Tulsa;OK;US
5d5951d3f298e886cb6450eada93b340b8c6de179c1017f7c83e363a022c45a1;10024999;Domestic;Central;Andover;SD;US
6b06bec99b18828e40842eb9630349ec2d0e7ba31fae47e0986706d0db293339;10011499;International;International;NÃO INFORMADO;NÃO INFORMADO;NÃO INFORMADO
467fbcd71208ddfbd70cd32110b14cf284efee071a9da4d0b9ad321064dd765b;10022470;Domestic;Southern;Ormond Beach;FL;US
be50abb14e184f430da2f5e9dc7f9e79696f24844fe383f576b58f9d9fb194bf;10004256;Domestic;Western;Portland;OR;US
889e12f1804f688babc1c47ae9dbfdf85ef710cf60c9b2347d7b05f7f27ecc20;10007591;International;International;FIN 00710;NÃO INFORMADO;UK
b933239255fc8ec275164f1dbe4682b92bb36415742df92838f4a76fef648483;10012305;International;International;NÃO INFORMADO;NÃO INFORMADO;NÃO INFORMADO
9bd9f5af5f1f47f6c3ff77d1bdfe5ebc17527cbdf096247dd889b0a1bac0c6e6;10021239;International;International;NÃO INFORMADO;NÃO INFORMADO;NÃO INFORMADO
bfac4c0af0e9be43fccdf00d57b723157502ffc2d65d6b05c06950b6cfab28ef;10023759;Domestic;Southern;Birmingham;AL;US
9d128bb632c41bc2181a7c030b868fded14d728094d9b817f6a75284652de50c;10017553;Domestic;Central;Ottawa;KS;US
4788a0314ca33485ffd428121e14245f19194195ff38719d7b02d3f09ea067ea;10013332;International;International;NÃO INFORMADO;NÃO INFORMADO;NÃO INFORMADO
fe0ecdded551e63dfaee3d99e2cc52e3018bd3761e6a456517d0ee1de1d0444e;10021283;International;International;NÃO INFORMADO;NÃO INFORMADO;NÃO INFORMADO
b522370132b6d49de89c72729d2964fdc85c82517ce0e2b2285f500ba4bc74fa;10022725;Domestic;Southern;Norcross;GA;US
2c570ccabd8bc3950795b6e966bf65885e4826c1b24619c1dde3411561d20462;10025289;Domestic;Western;Fresno;CA;US
193f39ffa8937a570d9ca9d044885808b355f95bc4d39bc8f977c9e6dd22d90b;10009660;Domestic;Southern;Augusta;GA;US
f83399acce930aa8fade66b6c0f2d2342f31fb48eb5365970969a842ffc7d917;10013899;International;International;NÃO INFORMADO;NÃO INFORMADO;NÃO INFORMADO
aedf26f81a414977f2f4d446ac77a116c033f30065042cb2c9915dde2bbd3a09;10010882;International;International;NÃO INFORMADO;NÃO INFORMADO;NÃO INFORMADO
87001cfdd5d26606b1c92d0940f69e324d57edb1f39fbece9a7b942807c4ee78;10017585;Domestic;Central;Milwaukie;WI;US
5beb8c464c9fcf1de47188981093a4c7a61853c5b48ece50c9a7d86e2aca617a;10024255;Domestic;Central;Pontiac;MI;US
512c1cd88bab3474d06f72836576cf8e4a7bd0efc38cdc29125049b907dba05e;10014469;Domestic;Central;Livonia;MI;US
c5844f4c125a97f7868757ba090f2034aacd10ec1885e633143cb5f0f864fb86;10023793;Domestic;Southern;Holden;LA;US
65450a419e2906289ab9e0017db18b3a26255fd6255fd0b16a5d04ce10f93f12;10009356;Domestic;Central;Cape Girardeau;MO;US
2ac8c100a702a0803baa25cf945619595edb5a162db7d24291ca81fed3630e7b;10002765;Domestic;Southern;Hialeah;FL;US
89e5c9155c63b2296a19b9cba3128764c28d34e7f2ae0fb57022da9a7aae691e;10015824;Domestic;Central;South Bend;IN;US
d0f4c678f6a69cd17e4bfef180c31cf4b5f104b459615a9c5dc976232f6cd60a;10025359;International;International;NÃO INFORMADO;NÃO INFORMADO;NÃO INFORMADO
48670a3f1c8d56d2e7a23081ae3ea6e5d882c5f618527535760c0820c538ff1a;10010923;International;International;Seocho-GU;NÃO INFORMADO;AU
a790dd0b7ee5093580cf2665840113e45f80b095c7883db313ef6cd69dd2d713;10020491;International;International;NÃO INFORMADO;NÃO INFORMADO;NÃO INFORMADO
882e1e375c311170182012d14e0675638955f5da810e29519c25416e23b78314;10025304;International;International;NÃO INFORMADO;NÃO INFORMADO;UK
7a4c8be3b951119a8cccb0d87c269c8d8244997508f269a283a518455bf55d99;10011360;International;International;NÃO INFORMADO;NÃO INFORMADO;NÃO INFORMADO
1860c886e4e707f58660913e9c7b006234ba7d0a5a042512af9f80ba3b1983c9;10025269;Domestic;Central;Overland Park;KS;US
b3bbbde29ef54284ed1d3c95929485fae6c939b5f8b2f9e4e9bc1c08a6d5475a;10013538;International;International;NÃO INFORMADO;NÃO INFORMADO;NÃO INFORMADO
c11769b47581940754c452ef304bde6a34594aa379138daf3e36086c6f8dbe90;10019150;Domestic;Southern;Jacksonville;FL;US
ea9146c7eccce1fa9877f44d366165a77f9f6298b23e715cd2c03b6399d1e0db;10009656;Domestic;Western;Trinity Center;CA;US
55d477af2bb6cd17ee144a4159e338f27fd9d6719f8c2da2d643426747bb2dfc;10006983;International;International;NÃO INFORMADO;NÃO INFORMADO;NÃO INFORMADO
e66aa26fe540b9e376baa74aaf7e54f7072c09d4acd35e5410002f6a5df47f09;10004207;International;International;NÃO INFORMADO;NÃO INFORMADO;NÃO INFORMADO
0820b9258f65a68c19a7890bc99a654ef6bfba16fdf29433391a09c2eeae8d2c;10026078;Domestic;Central;Bedford;OH;US
74266e748e4071952aef2a5c57c9e82d2bee7f617bfaeb03c34ef5c964b636fd;10019109;Domestic;Western;Sacramento;CA;US
d04ac196b30ee713479babc2e45c1f8da90e3bb0a9d8b738bcb4ef48f6b86d49;10022456;Domestic;Western;Rancho Cordova;CA;US
8b507d17fd8c64871eee03cf3027bf9c593acb2da1f8a50d6098ce629a203e69;10014779;Domestic;Northeast;Fairview;NJ;US
5f8be246c88eadcbcbb7b6b1cd457c1b3164b262a32d32652ffd168ebacc9ce7;10016047;Domestic;Southern;Nashville;TN;US
6686ec480e15df274324814d84979a6eaf1e3f3de062e8ac5e76d392d982043a;10002412;International;International;NÃO INFORMADO;NÃO INFORMADO;NÃO INFORMADO
62954af9ef90013eb58477b065d792006b73be0c04271ec7e2524cf067d1c86a;10026291;Domestic;Central;Poplar Bluff;MO;US
bd0e1dd3680ef6dd55f3c3657c01887c67e4f661feba6756362c3721089f4c4a;10018146;International;Canada;Fort Macleod;AB;CA
1bea09733be6e781a7c9d11804ecae7922b072769fa2e11f96d7161f0bbdbb0f;10011623;International;International;NÃO INFORMADO;NÃO INFORMADO;NÃO INFORMADO
b64b886a26045daa4298e1e2090fd8c9dcf84849f89b78f267fa8c362755993b;10011724;International;Canada;Ingersoll;ON;CA
1302d63de6e91046c865bc765d5f0add0483cacea2c10564fe5b894401ea2476;10005688;International;International;NÃO INFORMADO;NÃO INFORMADO;NÃO INFORMADO
8aed13d5eea1cc462b15484c38ca34f50a2b18b0a120ba8c3cc3251c5ccee827;10024022;Domestic;Western;Irvine;CA;US
71d2ccc27449f3febaabf58b28b5f07fca4a26a3cffdf1c9da8828603888cff1;10000456;International;Canada;Edmonton;AB;CA
3b293b3d0dbf7f1ef4e98f6d1cdfc8449ef137b2be4527f0ea075c70e551dd04;10021736;International;International;NÃO INFORMADO;NÃO INFORMADO;NÃO INFORMADO
4bab9d6b0db52307862bbf5298617c1523e3f27ed6cbc3df6ea7b921dc519147;10019952;International;International;NÃO INFORMADO;NÃO INFORMADO;NÃO INFORMADO
86752c83167f175434d87c5cceb9303f12f2cf97fb7a1239abf1a1c7ac693a3b;10015783;Domestic;Northeast;Philadelphia;PA;US
a47be94eb83a28e218261303a36523c55dcc56859922752a8f1867a6f0a6475e;10024743;Domestic;Western;Enumclaw;WA;US
afb51046aa3861cde4faeb3d4e4b0b8ab5e32c5456bbec926a1a9c962ceb0894;10020364;International;International;NÃO INFORMADO;NÃO INFORMADO;NÃO INFORMADO
8b8d5fbcde8c473efffc33b23a2fc140a8172e8c1718a5a66da71c1aa2940c83;10013312;International;International;NÃO INFORMADO;NÃO INFORMADO;NÃO INFORMADO
4a93f2c8fb55d9b9f8a2ab2932f6af931b8836911bb01f76c541e3dff738d4c4;10014540;International;International;1980 Santiago;NÃO INFORMADO;UK
fc2a538bd3a6e051cd7b1a7c87afb64cf391ab68dfa55069db67183f514d755c;10023778;Domestic;Western;Hillsboro;OR;US
6240aa772736b923712def01fbf8441254f686cb13580ee2e3bf81eddbe83ddf;10007564;Domestic;Southern;Cleveland;TX;US
6718c674021d2eab11c751dd90880f8da7504299b091843dd5c1ab66c48519b4;10011870;International;International;NÃO INFORMADO;NÃO INFORMADO;NÃO INFORMADO
e883c5aef7faf053034a416e1cb87f800528022a9e5daca41a783fe7527f8f0f;10011355;International;International;NÃO INFORMADO;NÃO INFORMADO;NÃO INFORMADO
612ecf34a7a20659d09a8cf15150c71189bc30cafad6d7b713f3326b837d90e4;10006916;International;International;NÃO INFORMADO;NÃO INFORMADO;NÃO INFORMADO
e725ad16a03b685c77c037c8a9da71908370c96b468aa93bfd461371c49ab435;10020448;International;Canada;Regina;SK;CA
3c03071cfbd216da7c823dd6337bf74859c52daa6e83e01ab682af24bc9604e6;10016807;Domestic;Central;Overland Park;KS;US
0a758b9157e079a78f7b1451cac0166531053385a5de7d237f11bcbdf1c374ed;10009645;International;International;NÃO INFORMADO;NÃO INFORMADO;NÃO INFORMADO
859b7b0c1b6e5a8bc08a2a0673b94b3626fa2fbcd6758593bfcc84925dbd636a;10005043;International;International;San Jose;NÃO INFORMADO;UK
67fb8577e669540448e3d0ab1020c19fc08d81266f598fd804001770d8ca3174;10022201;International;International;Carcas;NÃO INFORMADO;UK
f31a06461096ae01686d4c90740d8beafe62b7d6df062bf1c28729583c1af5e3;10027572;Domestic;Northeast;Elma;NY;US
fc496a6c805727d0c53fe3482044b065456aaf2400d314784fcacf6fb42b6c37;10025353;International;International;NÃO INFORMADO;NÃO INFORMADO;NÃO INFORMADO
3fcd83c5626437531a09fe84ee9eae24288450ae87e76ab95e31befba910646d;10022183;Domestic;Western;Breckenridge;CO;US
2addf2946eed8b507612a181180182c92b7bf7bd3a7e2783293f5a7569f83ee4;10020193;International;International;NÃO INFORMADO;NÃO INFORMADO;UK
4ac7c150622e18ca85320b45845c70531cb30001fd59d993d05700da0b75d08e;10021300;International;International;NÃO INFORMADO;NÃO INFORMADO;NÃO INFORMADO
86bc7545eb2e884e278d8bfad5a0f8a61f6a439eaa103da73d00a8a1491b45c2;10002139;International;International;NÃO INFORMADO;NÃO INFORMADO;NÃO INFORMADO
5313b4ad01430c3b1bbf8a8710dc2eed4f463c8a30a07afe481107bb2426e487;10001818;International;International;NÃO INFORMADO;NÃO INFORMADO;NÃO INFORMADO
f1420d351cf65434ad0d9fbef5ab3586fe4727dfc76eaca192f7ddc9d74dce35;10021179;Domestic;Western;El Cajon;CA;US
ed3499f712fea8116866c8a8c48ea76519055c86f54a09f27b279b0bca5e7fa4;10025051;Domestic;Western;Anchorage;AK;US
a8086c2e424103cb9e7cd5eafefbacd2cc3fbf60a9a2cbb73a09da62d7039321;10020388;Domestic;Northeast;Glen Burnie;MD;US
d624c05b74f34dd971ca464afdf4fd2151469707a22a2e8d5240b983e9292e40;10026365;International;International;NÃO INFORMADO;NÃO INFORMADO;NÃO INFORMADO
5a52ef69773d80f1633e0d72709658c2de5c136d94a94cadea08d8e6ca732bd8;10012158;International;International;NÃO INFORMADO;NÃO INFORMADO;NÃO INFORMADO
bea9572f198d1953fa12eca27125548cd4c3dd0263acdd9cb285340d609e90c6;10018877;International;International;Beirut;NÃO INFORMADO;AU
56319ece524f156b7ee98f7cf644ca0d688dd681faf83242bf920928b918d712;10003882;International;International;NÃO INFORMADO;NÃO INFORMADO;NÃO INFORMADO
375dcfb61f2841c6ee3adc8bd1bb71518c8d3b93c14d4ffb8ae9ca1227d7f285;10025467;International;International;NÃO INFORMADO;NÃO INFORMADO;NÃO INFORMADO
e32778a0571054599020d440ed4beff5c575a48958234d1321d75f7acf93bd99;10020962;Domestic;Northeast;Mercer;PA;US
